id	title	title_source	start	title_uri	ccodes	matches	variants	aat_types	parent_name	parent_id	lon	lat	geowkt	geo_source	geo_id	end	description
1	Ottoman Empire	oape	1850	https://github.com//OpenArabicPE/authority-files/data/tei/gazetteer_OpenArabicPE.TEIP5.xml			Ottoman Empire@en; الولايات العثمانية@ar; البلاد العثمانية@ar; الدولة العثمانية@ar; المملكة العثمانية@ar; Turkey@en				35	39					
2	قصر ييلدز	oape	1850	https://github.com//OpenArabicPE/authority-files/data/tei/gazetteer_OpenArabicPE.TEIP5.xml			قصر ييلدز@ar; ييلدز@ota										
3	Istanbul	oape	1850	https://github.com//OpenArabicPE/authority-files/data/tei/gazetteer_OpenArabicPE.TEIP5.xml		gn:745044	Constantinople@; İstanbul@; Astāna@ar-Latn-x-ijmes; Istanbul@en; Consple@en; Constple@en; الأستانة@ar; الاستانة@ar; الآستانة@ar; دار السلطنة@ar; القسطنطينية@ar; استانبول@ar; Byzance@fr; Istanbul@fr; Byzantion@de; Istanbul@de; İstanbul@tr				28.94966	41.01384					
590	بلاد دمشق	oape	1850	https://github.com//OpenArabicPE/authority-files/data/tei/gazetteer_OpenArabicPE.TEIP5.xml			بلاد دمشق@ar										
4	Greater Syria	oape	1850	https://github.com//OpenArabicPE/authority-files/data/tei/gazetteer_OpenArabicPE.TEIP5.xml		gn:6754242	Bilād al-Shām@ar-Latn-x-ijmes; بلاد الشام@ar; Greater Syria@en				44.84908	32.8686					
6	Jerusalem	oape	1850	https://github.com//OpenArabicPE/authority-files/data/tei/gazetteer_OpenArabicPE.TEIP5.xml		gn:281184	القدس@ar; القدس الشريف@ar; بيت المقدس@ar; Jerusalem@en; al-Quds@ar-Latn-x-ijmes; al-Quds al-Sharīf@ar-Latn-x-ijmes; Jérusalem@fr; Jerusalem@de; Kudüs@tr				35.21633	31.76904					
7	Nabatiye	oape	1850	https://github.com//OpenArabicPE/authority-files/data/tei/gazetteer_OpenArabicPE.TEIP5.xml		gn:7870014	النبطية@ar; Nabatäa@de; Nebatiye@tr; al-Nabaṭiyya@ar-Latn-x-ijmes; Nabatiye@en				35.48383	33.37717					
12	Jaffa	oape	1850	https://github.com//OpenArabicPE/authority-files/data/tei/gazetteer_OpenArabicPE.TEIP5.xml		gn:293253	Jaffa@; Yafo@; Jaffa@en; يافا@ar; Yāfā@ar-Latn-x-ijmes; Jaffa@fr; Jaffa@de				34.75224	32.05043					
5	جبل عامل	oape	1850	https://github.com//OpenArabicPE/authority-files/data/tei/gazetteer_OpenArabicPE.TEIP5.xml		gn:278960	جبل عامل@; جبل عامل@ar				35.36667	33.16667					
8	Tyre	oape	1850	https://github.com//OpenArabicPE/authority-files/data/tei/gazetteer_OpenArabicPE.TEIP5.xml		gn:267008	Tyre@en; صور@ar; Sour@fr; Sur@de				35.19389	33.27333					
9	Sidon	oape	1850	https://github.com//OpenArabicPE/authority-files/data/tei/gazetteer_OpenArabicPE.TEIP5.xml		gn:268064	Saida@; Saïda@; Ṣaydā@ar-Latn-x-ijmes; Sidon@en; صيدا@ar; Sidon@fr; Sidon@de; Sayda@tr				35.37148	33.55751					
583	اروفة	oape	1850	https://github.com//OpenArabicPE/authority-files/data/tei/gazetteer_OpenArabicPE.TEIP5.xml			اروفة@ar										
593	جامع القيقان	oape	1850	https://github.com//OpenArabicPE/authority-files/data/tei/gazetteer_OpenArabicPE.TEIP5.xml			جامع القيقان@ar										
597	رعبان	oape	1850	https://github.com//OpenArabicPE/authority-files/data/tei/gazetteer_OpenArabicPE.TEIP5.xml			رعبان@ar										
605	قلعة الروم	oape	1850	https://github.com//OpenArabicPE/authority-files/data/tei/gazetteer_OpenArabicPE.TEIP5.xml			قلعة الروم@ar										
607	كبدوكية	oape	1850	https://github.com//OpenArabicPE/authority-files/data/tei/gazetteer_OpenArabicPE.TEIP5.xml			كبدوكية@ar										
608	كفرنابو	oape	1850	https://github.com//OpenArabicPE/authority-files/data/tei/gazetteer_OpenArabicPE.TEIP5.xml			كفرنابو@ar										
609	نزيب	oape	1850	https://github.com//OpenArabicPE/authority-files/data/tei/gazetteer_OpenArabicPE.TEIP5.xml			نزيب@ar										
610	هيرابلس	oape	1850	https://github.com//OpenArabicPE/authority-files/data/tei/gazetteer_OpenArabicPE.TEIP5.xml			هيرابلس@ar										
14	Aleppo (Province)	oape	1850	https://github.com//OpenArabicPE/authority-files/data/tei/gazetteer_OpenArabicPE.TEIP5.xml			Aleppo (Province)@; ḥalab vilāyeti@ar-Latn-x-ijmes; vilāyet-i ḥalab@ota-Latn-x-ijmes; ولاية حلب@ar										
164	بيره جك	oape	1850	https://github.com//OpenArabicPE/authority-files/data/tei/gazetteer_OpenArabicPE.TEIP5.xml		gn:321062	بيره جك@ota; بيره جيك@ota; Birecik@tr				37.97841	37.02577					
571	Idlib	oape	1850	https://github.com//OpenArabicPE/authority-files/data/tei/gazetteer_OpenArabicPE.TEIP5.xml		gn:169389	إدلب@ar; ادلب@ar; الدب@ar; Idlib@en; Idlib@fr; Idlib@de; İdlip@tr				36.63393	35.93062					
573	الباب	oape	1850	https://github.com//OpenArabicPE/authority-files/data/tei/gazetteer_OpenArabicPE.TEIP5.xml		gn:174018	الباب@ar				37.5157	36.37051					
586	العمق	oape	1850	https://github.com//OpenArabicPE/authority-files/data/tei/gazetteer_OpenArabicPE.TEIP5.xml		gn:11954892	العمق@ar				44.05926	13.45095					
587	المرة	oape	1850	https://github.com//OpenArabicPE/authority-files/data/tei/gazetteer_OpenArabicPE.TEIP5.xml		gn:6820642	المرة@ar				44.14506	35.35903					
588	المعرة	oape	1850	https://github.com//OpenArabicPE/authority-files/data/tei/gazetteer_OpenArabicPE.TEIP5.xml		gn:168717	المعرة@ar				36.92755	35.5985					
574	Sanliurfa	oape	1850	https://github.com//OpenArabicPE/authority-files/data/tei/gazetteer_OpenArabicPE.TEIP5.xml		gn:298333	اورفة@ar; Sanliurfa@en; Édesse@fr; Şanlıurfa@tr				38.79392	37.16708					
591	بيلان	oape	1850	https://github.com//OpenArabicPE/authority-files/data/tei/gazetteer_OpenArabicPE.TEIP5.xml		gn:18162	بيلان@ar				45.1713	37.5317					
572	حارم	oape	1850	https://github.com//OpenArabicPE/authority-files/data/tei/gazetteer_OpenArabicPE.TEIP5.xml		gn:169866	حارم@ar				36.52078	36.21176					
595	خربوت	oape	1850	https://github.com//OpenArabicPE/authority-files/data/tei/gazetteer_OpenArabicPE.TEIP5.xml		gn:97385	خربوت@ar				43.90387	36.9031					
16	Dayr az Zawr	oape	1850	https://github.com//OpenArabicPE/authority-files/data/tei/gazetteer_OpenArabicPE.TEIP5.xml		gn:170794	Dayr al-Zur@; Deir ez-Zor@; Dayr al-Zūr@ar-Latn-x-ijmes; Dayr az Zawr@en; دير الزور@ar; Deyrizor@tr; Azaura@; DEZ@; Dair az-Zaur@; Dair az-Zaŭr@; Dajr az-Zaur@; Dajr ez-Zaur@; Dayr al-Zawr@; Dayr al-Zor@; Dayr az Zawr@; Dayr az Zur@; Dayr az Zūr@; Dayr az-Zawr@; Deir Azzor@; Deir Zzor@; Deir al-Zor@; Deir el-Zor@; Deir ez Zoar@; Deir ez Zor@; Deir ez Zoras@; Deir ez-Zor@; Dejr ez-Zor@; Dejr-ehz-Zor@; Dejr-ez-Zor@; Der Ezzor@; Der Zor@; Deyrizor@; Deïr ez Zor@				40.14084	35.33588					
17	سروج	oape	1850	https://github.com//OpenArabicPE/authority-files/data/tei/gazetteer_OpenArabicPE.TEIP5.xml		gn:9233	سروج@ar; Surūj@ar-Latn-x-ijmes				38.47967	36.85119					
606	قورس	oape	1850	https://github.com//OpenArabicPE/authority-files/data/tei/gazetteer_OpenArabicPE.TEIP5.xml		gn:350450	قورس@ar				31.06399	30.27692					
532	Mardin	oape	1850	https://github.com//OpenArabicPE/authority-files/data/tei/gazetteer_OpenArabicPE.TEIP5.xml		gn:304797	Mardin@ar-Latn-x-ijmes; ماردين@ar; Mardin@en; Mardin@fr; Mardin@de; Mardin@tr				40.74357	37.31309					
594	جبل سمعان	oape	1850	https://github.com//OpenArabicPE/authority-files/data/tei/gazetteer_OpenArabicPE.TEIP5.xml		gn:164110	جبل سمعان@ar				36.84795	35.93552					
585	الرها	oape	1850	https://github.com//OpenArabicPE/authority-files/data/tei/gazetteer_OpenArabicPE.TEIP5.xml		gn:247424	الرها@ar				36.54725	30.87472					
592	تيزين	oape	1850	https://github.com//OpenArabicPE/authority-files/data/tei/gazetteer_OpenArabicPE.TEIP5.xml		gn:8304714	تيزين@ar				69.56434	34.36766					
596	دلوك	oape	1850	https://github.com//OpenArabicPE/authority-files/data/tei/gazetteer_OpenArabicPE.TEIP5.xml		gn:7426238	دلوك@ar				45.21148	35.8593					
578	Sergiopolis	oape	1850	https://github.com//OpenArabicPE/authority-files/data/tei/gazetteer_OpenArabicPE.TEIP5.xml		gn:172909	Sergiopolis@gr-Latn-EN; الرصافة@ar				38.75806	35.62883					
589	باب إنطاكية	oape	1850	https://github.com//OpenArabicPE/authority-files/data/tei/gazetteer_OpenArabicPE.TEIP5.xml		gn:11710647	باب إنطاكية@ar; باب انطاكية@ar				37.15077	36.19478					
579	قضاء اسكندرونة	oape	1850	https://github.com//OpenArabicPE/authority-files/data/tei/gazetteer_OpenArabicPE.TEIP5.xml			قضاء اسكندرونة@ar										
13	Alexandretta	oape	1850	https://github.com//OpenArabicPE/authority-files/data/tei/gazetteer_OpenArabicPE.TEIP5.xml		gn:311111	Alexandretta@en; إسكندرونة@ar; الإسكندرونة@ar; İskenderun@fr; Iskenderun@de; İskenderun@tr; Iskandarūna@ar; Alexandrette@de; Alexandrette@fr				36.17347	36.58718					
580	لواء حلب	oape	1850	https://github.com//OpenArabicPE/authority-files/data/tei/gazetteer_OpenArabicPE.TEIP5.xml			لواء حلب@ar										
581	قضاء حلب	oape	1850	https://github.com//OpenArabicPE/authority-files/data/tei/gazetteer_OpenArabicPE.TEIP5.xml			قضاء حلب@ar										
15	Aleppo	oape	1850	https://github.com//OpenArabicPE/authority-files/data/tei/gazetteer_OpenArabicPE.TEIP5.xml		gn:170063	Aleppo@; Aleppo@; Aleppo@en; Ḥalab@ar-Latn-x-ijmes; حلب@ar; حلب الشهباء@ar; الشهباء@ar; عاصمة سورية البيضاء@ar; Alep@fr; Aleppo@de; Halep@tr				37.16117	36.20124					
577	Aleppo Citadel	oape	1850	https://github.com//OpenArabicPE/authority-files/data/tei/gazetteer_OpenArabicPE.TEIP5.xml		gn:7674792	قلعة حلب@ar; Aleppo Citadel@en				37.1631	36.19938					
18	لواء اللاذقية	oape	1850	https://github.com//OpenArabicPE/authority-files/data/tei/gazetteer_OpenArabicPE.TEIP5.xml			لواء اللاذقية@ar										
19	Latakia	oape	1850	https://github.com//OpenArabicPE/authority-files/data/tei/gazetteer_OpenArabicPE.TEIP5.xml		gn:173576	Latakia@; Latakia@; Latakia@en; اللاذقية@ar; لاذقية@ar; Lattaquié@fr; Latakia@de; Lazkiye@tr				35.77684	35.51484					
20	قضاء عينتاب	oape	1850	https://github.com//OpenArabicPE/authority-files/data/tei/gazetteer_OpenArabicPE.TEIP5.xml			قضاء عينتاب@ar										
21	Gaziantep	oape	1850	https://github.com//OpenArabicPE/authority-files/data/tei/gazetteer_OpenArabicPE.TEIP5.xml		gn:314830	عينتاب@ar; شهرة عينتاب@ar; عين تاب@ar; Gaziantep@en; Gaziantep@fr; Gaziantep@de; Gaziantep@tr				37.3825	37.05944					
582	لواء مرعش	oape	1850	https://github.com//OpenArabicPE/authority-files/data/tei/gazetteer_OpenArabicPE.TEIP5.xml			لواء مرعش@ar										
576	Kahramanmaraş	oape	1850	https://github.com//OpenArabicPE/authority-files/data/tei/gazetteer_OpenArabicPE.TEIP5.xml		gn:310859	مرعش@ar; Kahramanmaraş@en; Kahramanmaraş@fr; Kahramanmaraş@de; Kahramanmaraş@tr				36.92641	37.5847					
598	قضاء الباب	oape	1850	https://github.com//OpenArabicPE/authority-files/data/tei/gazetteer_OpenArabicPE.TEIP5.xml			قضاء الباب@ar										
599	قضاء الرقة	oape	1850	https://github.com//OpenArabicPE/authority-files/data/tei/gazetteer_OpenArabicPE.TEIP5.xml			قضاء الرقة@ar										
600	قضاء المعرة	oape	1850	https://github.com//OpenArabicPE/authority-files/data/tei/gazetteer_OpenArabicPE.TEIP5.xml			قضاء المعرة@ar										
601	قضاء بيلام	oape	1850	https://github.com//OpenArabicPE/authority-files/data/tei/gazetteer_OpenArabicPE.TEIP5.xml			قضاء بيلام@ar										
602	قضاء جسر الشغر	oape	1850	https://github.com//OpenArabicPE/authority-files/data/tei/gazetteer_OpenArabicPE.TEIP5.xml			قضاء جسر الشغر@ar										
570	جسر الشغور	oape	1850	https://github.com//OpenArabicPE/authority-files/data/tei/gazetteer_OpenArabicPE.TEIP5.xml		gn:169023	جسر الشغور@ar; جسر الشغر@ar				36.31983	35.81418					
603	قضاء كليس	oape	1850	https://github.com//OpenArabicPE/authority-files/data/tei/gazetteer_OpenArabicPE.TEIP5.xml			قضاء كليس@ar										
575	Kilis	oape	1850	https://github.com//OpenArabicPE/authority-files/data/tei/gazetteer_OpenArabicPE.TEIP5.xml		gn:307864	كليس@ar; Kilis@en; Kilis@fr; Kilis@de; Kilis@tr				37.115	36.71611					
604	قضاء منبج	oape	1850	https://github.com//OpenArabicPE/authority-files/data/tei/gazetteer_OpenArabicPE.TEIP5.xml			قضاء منبج@ar										
569	منبج	oape	1850	https://github.com//OpenArabicPE/authority-files/data/tei/gazetteer_OpenArabicPE.TEIP5.xml		gn:167357	منبج@ar; Manbidsch@de; Münbiç@tr				37.95495	36.52815					
23	Mersin	oape	1850	https://github.com//OpenArabicPE/authority-files/data/tei/gazetteer_OpenArabicPE.TEIP5.xml		gn:304531	Mersin@en; Mersina@en; Myrte@fr; Mersin@de; Mersin@tr				34.63886	36.81196					
22	Adana	oape	1850	https://github.com//OpenArabicPE/authority-files/data/tei/gazetteer_OpenArabicPE.TEIP5.xml		gn:325363	Adana@en; أضنة@ar; Adana@fr; Adana@de; Adana@tr				35.32889	37.00167					
451	Antakya	oape	1850	https://github.com//OpenArabicPE/authority-files/data/tei/gazetteer_OpenArabicPE.TEIP5.xml		gn:323779	Anṭākiya@ar-Latn-x-ijmes; انطاكية@ar; Antakya@en; Antioche@fr; Antakya@de; Antakya@tr				36.15722	36.20655					
24	Tarsus	oape	1850	https://github.com//OpenArabicPE/authority-files/data/tei/gazetteer_OpenArabicPE.TEIP5.xml		gn:299817	Tarsus@; Tarsus@; Tarsus@en; طرسوس@ar; Tarse@fr; Tarsus@de; Tarsus@tr				34.8784	36.91876					
25	Beirut (Province)	oape	1850	https://github.com//OpenArabicPE/authority-files/data/tei/gazetteer_OpenArabicPE.TEIP5.xml			Beirut (Province)@; ولاية بيروت@ar				35.50157	33.89332					
26	Beirut	oape	1850	https://github.com//OpenArabicPE/authority-files/data/tei/gazetteer_OpenArabicPE.TEIP5.xml		gn:276781	Beirut@; Bayrūt@ar-Latn-x-ijmes; Beyrout@; Beirout@; Beirut@en; بيروت@ar; مدينة بيروت@ar; Bayrūt@ar-Latn-x-ijmes; Beyrouth@fr; Beirut@de; Beyrut@tr				35.49442	33.88894					
27	ʿAbayh	oape	1850	https://github.com//OpenArabicPE/authority-files/data/tei/gazetteer_OpenArabicPE.TEIP5.xml		gn:276789	ʿAbayh@; عبيه@ar; عبي@ar				35.52722	33.73556					
513	Furn al-Shubbāk	oape	1850	https://github.com//OpenArabicPE/authority-files/data/tei/gazetteer_OpenArabicPE.TEIP5.xml		gn:275158	Furn al-Shubbāk@ar-Latn-x-ijmes; فرن الشباك@ar				35.52083	33.87278					
28	Aleih	oape	1850	https://github.com//OpenArabicPE/authority-files/data/tei/gazetteer_OpenArabicPE.TEIP5.xml		gn:280425	Aleyh@; Aaley@; ʿĀlayh@ar-Latn-x-ijmes; ʿAlayh@ar-Latn-x-ijmes; Aleih@; Aleih@en; عاليه@ar; عليه@ar				35.603245	33.810086					
369	Nazareth	oape	1850	https://github.com//OpenArabicPE/authority-files/data/tei/gazetteer_OpenArabicPE.TEIP5.xml		gn:294098	النصارة@ar; al-Naṣāra@ar-Latn-x-ijmes; Nazareth@en; Nazareth@fr; Nazaret@de; Nasıra@tr				35.30483	32.69925					
10	Tiberias	oape	1850	https://github.com//OpenArabicPE/authority-files/data/tei/gazetteer_OpenArabicPE.TEIP5.xml		gn:293322	Tiberias@en; طبرية@ar; طبريا@ar; Tibériade@fr; Tiberias@de; Tiberya@tr				35.53124	32.79221					
11	Nablus	oape	1850	https://github.com//OpenArabicPE/authority-files/data/tei/gazetteer_OpenArabicPE.TEIP5.xml		gn:7870555	Nablus@; Nablus@; Nablus@en; نابلس@ar				35.28708	32.24056					
29	لواء طرابلس	oape	1850	https://github.com//OpenArabicPE/authority-files/data/tei/gazetteer_OpenArabicPE.TEIP5.xml			لواء طرابلس@ar										
30	Tripoli	oape	1850	https://github.com//OpenArabicPE/authority-files/data/tei/gazetteer_OpenArabicPE.TEIP5.xml		gn:266826	Tripoli@; طرابلس الشام@ar; طرابلس@ar; Ṭarāblus al-Shām@ar-Latn-x-ijmes; Ṭarāblus@ar-Latn-x-ijmes; Tripoli@en; Tripoli@fr; Tripoli@de; Trablusşam@tr				35.84415	34.43352					
31	عكار	oape	1850	https://github.com//OpenArabicPE/authority-files/data/tei/gazetteer_OpenArabicPE.TEIP5.xml		gn:274723	عكار@ar				36.07972	34.54278					
32	لواء عكا	oape	1850	https://github.com//OpenArabicPE/authority-files/data/tei/gazetteer_OpenArabicPE.TEIP5.xml			لواء عكا@ar										
33	Acre	oape	1850	https://github.com//OpenArabicPE/authority-files/data/tei/gazetteer_OpenArabicPE.TEIP5.xml		gn:295721	Acre@; Akkon@; Acre@en; Akka@en; عكا@ar; Acre@fr; Akko@de; Akkon@de				35.070630	32.923925					
34	قضاء حيفا	oape	1850	https://github.com//OpenArabicPE/authority-files/data/tei/gazetteer_OpenArabicPE.TEIP5.xml			قضاء حيفا@ar										
35	Haifa	oape	1850	https://github.com//OpenArabicPE/authority-files/data/tei/gazetteer_OpenArabicPE.TEIP5.xml		gn:294801	Haifa@; Haifa@; Caiffa@; Haifa@en; حيفا@ar; حيفاء@ar; Ḥayfā@ar-Latn-x-ijmes; Haïfa@fr; Haifa@de; Hayfa@tr				34.9885	32.81841					
36	Province of Syria	oape	1850	https://github.com//OpenArabicPE/authority-files/data/tei/gazetteer_OpenArabicPE.TEIP5.xml		gn:163843	Damascus (Province)@; sūriye vilāyeti@ota-Latn-x-ijmes; vilāyet-i sūriye@ota-Latn-x-ijmes; Province of Syria@en; سورية@ar; ولاية سوريا@ar; ولاية سورية@ar; Syrie@fr; Syrien@de; Suriye@tr				38	35					
37	Madā’in Şāliḩ	oape	1850	https://github.com//OpenArabicPE/authority-files/data/tei/gazetteer_OpenArabicPE.TEIP5.xml		gn:104645	Madā’in Şāliḩ@; Madāʾin Ṣāliḥ@ar-Latn-x-ijmes; Madain Salih@; Al Hegr@; Al Hijr@; Al H̱egr@; Al Ḩijr@; al-Hajar@; Mada'in Salih@; Medain Saleh@; Medajen-Saleh@; Medâjen-Ṣâleḥ@				37.95512	26.8061					
38	Tabuk	oape	1850	https://github.com//OpenArabicPE/authority-files/data/tei/gazetteer_OpenArabicPE.TEIP5.xml		gn:101628	Tabuk@; Tabūk@; Tabūk@ar-Latn-x-ijmes; Tabuk@en; تبوك@ar; al-Ūlā@; al-Ula@; Tabouk@; Tabuk@; Tebuk@; Tabuk@fr; Tabuk@de; Tebük@tr				36.58333	28.38333					
39	District 12	oape	1850	https://github.com//OpenArabicPE/authority-files/data/tei/gazetteer_OpenArabicPE.TEIP5.xml		gn:4353210	Damascus (District)@; Şām-i şerīf sancağı@ota-Latn-x-ijmes; District 12@en				-77.20761	39.28292					
40	Marjaayoun	oape	1850	https://github.com//OpenArabicPE/authority-files/data/tei/gazetteer_OpenArabicPE.TEIP5.xml		gn:271225	Marjaayoun@; Marjayoûn@; Marjʿayūn@ar-Latn-x-ijmes; Marjaʿūn@; Marj Ayoun@; Merj Ayoun@fr; مرجعيون@ar; مرج عيون@ar				35.53822	33.27511					
42	Az Zabadānī	oape	1850	https://github.com//OpenArabicPE/authority-files/data/tei/gazetteer_OpenArabicPE.TEIP5.xml		gn:172059	Zabadani@; Az Zabadānī@; Zabadānī@ar-Latn-x-ijmes; Az Zabadānī@en; الزبداني@ar				36.1005	33.72488					
41	Barza	oape	1850	https://github.com//OpenArabicPE/authority-files/data/tei/gazetteer_OpenArabicPE.TEIP5.xml		gn:171742	Barza@; Barzeh@; برزة@ar; برزة مسبق الصنع@ar; مساكن‎‎@ar; مسبق الصنع@ar				36.31479	33.55181					
43	Kadem esh-Sherif	oape	1850	https://github.com//OpenArabicPE/authority-files/data/tei/gazetteer_OpenArabicPE.TEIP5.xml		gn:173394	al-Qaddam@; al-Qaddam al-Sharīf@ar-Latn-x-ijmes; Kadem esh-Sherif@en; Kadem i-Sherif@en; Kadem@en; القدم@ar				36.28798	33.47234					
44	Blūdān	oape	1850	https://github.com//OpenArabicPE/authority-files/data/tei/gazetteer_OpenArabicPE.TEIP5.xml		gn:171331	Bludan@; Blūdān@; Blūdān@ar-Latn-x-ijmes; Blūdān@en; بلودان@ar				36.12549	33.72329					
45	Dumar	oape	1850	https://github.com//OpenArabicPE/authority-files/data/tei/gazetteer_OpenArabicPE.TEIP5.xml		gn:170585	Dumar@; دمر@ar				36.2436	33.53148					
46	al-Qābūn	oape	1850	https://github.com//OpenArabicPE/authority-files/data/tei/gazetteer_OpenArabicPE.TEIP5.xml		gn:173396	al-Qābūn@; Qābūn@; Qābūn@ar-Latn-x-ijmes; قابون@ar; Al Qabun@; Al Qābūn@; Kaboun@; Kabun@; Kābūn@; Qaboun@; Qabun@; Qâboûn@; Qābūn@; alqabwn@; qabwn@				36.33604	33.54309					
47	Qaddam railway station	oape	1850	https://github.com//OpenArabicPE/authority-files/data/tei/gazetteer_OpenArabicPE.TEIP5.xml		gn:173393	Qaddam station@; Maḥaṭṭa al-Qaddam@ar-Latn-x-ijmes; Qaddam railway station@en; Gare Kadem@fr; Kadem station@en; محطة القدم@ar				36.29229	33.47619					
48	Ayn Fija	oape	1850	https://github.com//OpenArabicPE/authority-files/data/tei/gazetteer_OpenArabicPE.TEIP5.xml		gn:7894838	Ayn Fija@; Ein Al Fejeh@; ʿAyn al-Fīja@ar-Latn-x-ijmes; عين الفيجة@ar; ʿAyn Fīja@; Ain-Fijeh@; Ain el-Fiji@				36.18944	33.63578					
49	Damascus (kaza)	oape	1850	https://github.com//OpenArabicPE/authority-files/data/tei/gazetteer_OpenArabicPE.TEIP5.xml			Damascus (kaza)@; Kaza of Damascus@; Qaḍāʾ Dimashq@ar-Latn-x-ijmes; Şām-i şerīf ḳażāsı@ota-Latn-x-ijmes; Şam-i şerif kazası@tr										
51	Mezze	oape	1850	https://github.com//OpenArabicPE/authority-files/data/tei/gazetteer_OpenArabicPE.TEIP5.xml		gn:173470	Mezze@; Al Mazzah@; al-Mazza@ar-Latn-x-ijmes; المزة@ar				36.24763	33.49991					
52	اليرموك	oape	1850	https://github.com//OpenArabicPE/authority-files/data/tei/gazetteer_OpenArabicPE.TEIP5.xml		gn:8422856	اليرموك@ar				36.30571	33.47078					
53	Jobar	oape	1850	https://github.com//OpenArabicPE/authority-files/data/tei/gazetteer_OpenArabicPE.TEIP5.xml		gn:169137	Jobar@; Jawbar@ar-Latn-x-ijmes; جوبر@ar				36.33496	33.52328					
50	Kfar Susa	oape	1850	https://github.com//OpenArabicPE/authority-files/data/tei/gazetteer_OpenArabicPE.TEIP5.xml		gn:11395650	Kfar Susa@; Kafar Sousah@; كفر سوسة@ar				36.27759	33.50157					
54	Jeramana	oape	1850	https://github.com//OpenArabicPE/authority-files/data/tei/gazetteer_OpenArabicPE.TEIP5.xml		gn:8609526	Jeramana@; Nāḩiyat Jaramānā@; Jaramānā@ar-Latn-x-ijmes; ناحية جرمانا@ar; Nahiyat Jaramana@; nahyt jrmana@; Nāḥiyat Jaramānā@; Jaramana@; Jaramāna@				36.35075	33.49227					
55	الغوطة	oape	1850	https://github.com//OpenArabicPE/authority-files/data/tei/gazetteer_OpenArabicPE.TEIP5.xml		gn:173866	الغوطة@ar				36.389	33.527					
56	River Barada	oape	1850	https://github.com//OpenArabicPE/authority-files/data/tei/gazetteer_OpenArabicPE.TEIP5.xml			River Barada@										
57	River Sufaniyya	oape	1850	https://github.com//OpenArabicPE/authority-files/data/tei/gazetteer_OpenArabicPE.TEIP5.xml			River Sufaniyya@										
58	River Thawra	oape	1850	https://github.com//OpenArabicPE/authority-files/data/tei/gazetteer_OpenArabicPE.TEIP5.xml			River Thawra@										
59	River Zaynabiyya	oape	1850	https://github.com//OpenArabicPE/authority-files/data/tei/gazetteer_OpenArabicPE.TEIP5.xml			River Zaynabiyya@										
61	Damascus	oape	1850	https://github.com//OpenArabicPE/authority-files/data/tei/gazetteer_OpenArabicPE.TEIP5.xml		gn:170654	Damascus@; Damascus@; Dimashq@ar-Latn-x-ijmes; Şām-i şerīf@ota-Latn-x-ijmes; Şam-i şerif@tr; Damascus@en; Damaskus@de; Damas@fr; دمشق@ar; الشام@ar; الفيحاء@ar				36.29128	33.5102					
76	Qanāyat al-Ḥuṭub	oape	1850	https://github.com//OpenArabicPE/authority-files/data/tei/gazetteer_OpenArabicPE.TEIP5.xml			Qanāyat al-Ḥuṭub@										
77	Bāb Tūmā	oape	1850	https://github.com//OpenArabicPE/authority-files/data/tei/gazetteer_OpenArabicPE.TEIP5.xml		gn:7642471	Bab Tuma@; Bāb Tūmā@; Baab Touma@; Bāb Tūmā@ar-Latn-x-ijmes; Bāb Tūmā@en; باب تومى@ar				36.3154	33.5108					
79	Tala' al -Qubba	oape	1850	https://github.com//OpenArabicPE/authority-files/data/tei/gazetteer_OpenArabicPE.TEIP5.xml			Tala' al -Qubba@; Ṭālaʿ al-Qubba@ar-Latn-x-ijmes										
78	Sufaniyya	oape	1850	https://github.com//OpenArabicPE/authority-files/data/tei/gazetteer_OpenArabicPE.TEIP5.xml			Sufaniyya@; Ṣūfāniyya@ar-Latn-x-ijmes; الصوفانية@ar										
80	Bāb Sharqī	oape	1850	https://github.com//OpenArabicPE/authority-files/data/tei/gazetteer_OpenArabicPE.TEIP5.xml		gn:7642405	Bab Sharqi@; Bāb Sharqī@; Bāb Sharqī@ar-Latn-x-ijmes; Baab Sherki@; Bāb Sharqī@en; باب شرقي@ar				36.3179	33.50944					
81	ʿAzīziyya Barracks	oape	1850	https://github.com//OpenArabicPE/authority-files/data/tei/gazetteer_OpenArabicPE.TEIP5.xml			ʿAzīziyya Barracks@										
86	Marja	oape	1850	https://github.com//OpenArabicPE/authority-files/data/tei/gazetteer_OpenArabicPE.TEIP5.xml		gn:2330755	Marja@; Sāḥat al-Marja@; Marja@ar-Latn-x-ijmes; Marja@en				36.298030	33.512828					
89	Qanawat	oape	1850	https://github.com//OpenArabicPE/authority-files/data/tei/gazetteer_OpenArabicPE.TEIP5.xml			Qanawat@; Qanawāt@; قنوات@ar										
91	Bahsa	oape	1850	https://github.com//OpenArabicPE/authority-files/data/tei/gazetteer_OpenArabicPE.TEIP5.xml		gn:7642463	Bahsa@; Baḥṣa@ar-Latn-x-ijmes; بحصة@ar; Bahsa@en; بحصة - سنجقدار@ar				36.29969	33.51262					
96	Bab al-Jabiyya	oape	1850	https://github.com//OpenArabicPE/authority-files/data/tei/gazetteer_OpenArabicPE.TEIP5.xml		gn:8379592	Bab al-Jabiyya@; Bāb al-Jābiyya@ar-Latn-x-ijmes; باب الجابية@ar				36.3013	33.5055					
98	Baramke	oape	1850	https://github.com//OpenArabicPE/authority-files/data/tei/gazetteer_OpenArabicPE.TEIP5.xml			Baramke@; Barāmikah@; Barmakieh@				36.28333	33.51667					
106	Taht al-Qala'	oape	1850	https://github.com//OpenArabicPE/authority-files/data/tei/gazetteer_OpenArabicPE.TEIP5.xml			Taht al-Qala'@; Taḥt al-Qalaʿ@ar-Latn-x-ijmes										
108	Al Qaymarīyah	oape	1850	https://github.com//OpenArabicPE/authority-files/data/tei/gazetteer_OpenArabicPE.TEIP5.xml		gn:7642461	Qaymariyya@; Al Qaymarīyah@; Qaymariyya@ar-Latn-x-ijmes; Al Qaymarīyah@en; Kaimarieh@; القيمرية@ar				36.3094	33.5108					
110	Jisr al-Abyad	oape	1850	https://github.com//OpenArabicPE/authority-files/data/tei/gazetteer_OpenArabicPE.TEIP5.xml		gn:8419672	Jisr al-Abyad@; Jisr al-Abyaḍ@ar-Latn-x-ijmes; الجسر الأبيض@ar				36.28794	33.52668					
111	Salihiyya	oape	1850	https://github.com//OpenArabicPE/authority-files/data/tei/gazetteer_OpenArabicPE.TEIP5.xml			Salihiyya@; Ṣāliḥiyya@ar-Latn-x-ijmes; Selahiyé@; الصالحية@ar										
113	al-Akrad	oape	1850	https://github.com//OpenArabicPE/authority-files/data/tei/gazetteer_OpenArabicPE.TEIP5.xml			al-Akrad@; Akrād@ar-Latn-x-ijmes; الاكراد@ar										
114	Muhajirin	oape	1850	https://github.com//OpenArabicPE/authority-files/data/tei/gazetteer_OpenArabicPE.TEIP5.xml			Muhajirin@; Muhājirīn@; المهاجرين@ar										
115	Ash Shāghūr	oape	1850	https://github.com//OpenArabicPE/authority-files/data/tei/gazetteer_OpenArabicPE.TEIP5.xml		gn:250295	Shaghur@; Ash Shāghūr@; Shaghour@; Shāghūr@ar-Latn-x-ijmes; Ash Shāghūr@en; الشاغور@ar				36.305853	33.506789					
116	Bāb aş Şaghīr	oape	1850	https://github.com//OpenArabicPE/authority-files/data/tei/gazetteer_OpenArabicPE.TEIP5.xml		gn:7642410	Bab al-Saghir@; Bāb aş Şaghīr@; Bāb al-Ṣaghīr@ar-Latn-x-ijmes; Bāb aş Şaghīr@en; الباب الصغير@ar; باب الصغير@ar				36.30668	33.50611					
117	Suq Saruja	oape	1850	https://github.com//OpenArabicPE/authority-files/data/tei/gazetteer_OpenArabicPE.TEIP5.xml		gn:7642451	Suq Saruja@; Sārūjah@; Sūq Sārūja@ar-Latn-x-ijmes; Sūq Sārūjā@; Souk Seruja@; ساروجا@ar; ساروجة@ar; سوق ساروجة@ar				36.2969	33.5163					
124	Bab al-Qala'	oape	1850	https://github.com//OpenArabicPE/authority-files/data/tei/gazetteer_OpenArabicPE.TEIP5.xml			Bab al-Qala'@; Bāb al-Qalaʿ@ar-Latn-x-ijmes										
119	Suq Bab al-Barid	oape	1850	https://github.com//OpenArabicPE/authority-files/data/tei/gazetteer_OpenArabicPE.TEIP5.xml			Suq Bab al-Barid@; Sūq Bāb al-Barīd@ar-Latn-x-ijmes										
123	Suq Midhat Pasha	oape	1850	https://github.com//OpenArabicPE/authority-files/data/tei/gazetteer_OpenArabicPE.TEIP5.xml			Suq Midhat Pasha@; Sūq Midḥat Pasha@ar-Latn-x-ijmes; Sūq al-Ṭawīl@										
122	Suq al-Khayyatin	oape	1850	https://github.com//OpenArabicPE/authority-files/data/tei/gazetteer_OpenArabicPE.TEIP5.xml			Suq al-Khayyatin@; Sūq al-Khayyāṭīn@ar-Latn-x-ijmes										
126	Suq al-Qutn	oape	1850	https://github.com//OpenArabicPE/authority-files/data/tei/gazetteer_OpenArabicPE.TEIP5.xml			Suq al-Qutn@; Sūq al-Quṭn@ar-Latn-x-ijmes										
125	Sūq al-Silāḥ	oape	1850	https://github.com//OpenArabicPE/authority-files/data/tei/gazetteer_OpenArabicPE.TEIP5.xml			Sūq al-Silāḥ@ar-Latn-x-ijmes; Souk el Selah@										
121	Suq al-Hamidiyya	oape	1850	https://github.com//OpenArabicPE/authority-files/data/tei/gazetteer_OpenArabicPE.TEIP5.xml			Suq al-Hamidiyya@; Sūq al-Ḥamīdiyya@ar-Latn-x-ijmes; Souk Hamidieh@fr										
120	Suq al-Buzuriyya	oape	1850	https://github.com//OpenArabicPE/authority-files/data/tei/gazetteer_OpenArabicPE.TEIP5.xml			Suq al-Buzuriyya@; Sug al-Buzuriyya@; al-Buzūriyya@ar-Latn-x-ijmes										
118	'Asruniya	oape	1850	https://github.com//OpenArabicPE/authority-files/data/tei/gazetteer_OpenArabicPE.TEIP5.xml			'Asruniya@; Suq al-ʿAṣrūniyya@; ʿAṣrūniyya@ar-Latn-x-ijmes										
127	Suq al-Jadid	oape	1850	https://github.com//OpenArabicPE/authority-files/data/tei/gazetteer_OpenArabicPE.TEIP5.xml		gn:76930	Suq al-Jadid@; Sūq al-Jadīd@ar-Latn-x-ijmes; Sūq al-Arwām@; Suq al-Arwam@; السوق الجديد@ar				36.302195	33.511001					
128	Al Ḩamīdīyah	oape	1850	https://github.com//OpenArabicPE/authority-files/data/tei/gazetteer_OpenArabicPE.TEIP5.xml		gn:7642567	Bab al-Barid@; Al Ḩamīdīyah@; Bāb al-Barīd@ar-Latn-x-ijmes; Souk el Berid@; Al Ḩamīdīyah@en; الحميدية@ar; باب البريد@ar				36.3051	33.5106					
129	Umayyad Mosque	oape	1850	https://github.com//OpenArabicPE/authority-files/data/tei/gazetteer_OpenArabicPE.TEIP5.xml			Umayyad Mosque@; الجامع الاموي@ar										
132	Suq al-Kharrab	oape	1850	https://github.com//OpenArabicPE/authority-files/data/tei/gazetteer_OpenArabicPE.TEIP5.xml			Suq al-Kharrab@; Sūq al-Kharrāb@ar-Latn-x-ijmes										
133	Suq al-Khayl	oape	1850	https://github.com//OpenArabicPE/authority-files/data/tei/gazetteer_OpenArabicPE.TEIP5.xml			Suq al-Khayl@; Sūq al-Khayl@ar-Latn-x-ijmes										
134	Suq al-Surujiyya	oape	1850	https://github.com//OpenArabicPE/authority-files/data/tei/gazetteer_OpenArabicPE.TEIP5.xml			Suq al-Surujiyya@; Sūq al-Surūjiyya@ar-Latn-x-ijmes										
135	Suq al-Zarabiliyya	oape	1850	https://github.com//OpenArabicPE/authority-files/data/tei/gazetteer_OpenArabicPE.TEIP5.xml			Suq al-Zarabiliyya@; Sūq al-Zarābiliyya@ar-Latn-x-ijmes										
130	Suq al-Atik	oape	1850	https://github.com//OpenArabicPE/authority-files/data/tei/gazetteer_OpenArabicPE.TEIP5.xml			Suq al-Atik@; Sūq al-ʿAtīq@ar-Latn-x-ijmes; Souk Atik@fr										
131	Suq al-Harir	oape	1850	https://github.com//OpenArabicPE/authority-files/data/tei/gazetteer_OpenArabicPE.TEIP5.xml			Suq al-Harir@; Sūq al-Ḥarīr@ar-Latn-x-ijmes										
136	Suq Ali Pasha	oape	1850	https://github.com//OpenArabicPE/authority-files/data/tei/gazetteer_OpenArabicPE.TEIP5.xml			Suq Ali Pasha@; Sūq ʿAlī Pasha@ar-Latn-x-ijmes										
138	Kharrāb	oape	1850	https://github.com//OpenArabicPE/authority-files/data/tei/gazetteer_OpenArabicPE.TEIP5.xml		gn:127725	Kharrab@; Kharrāb@; Kharrāb@ar-Latn-x-ijmes; Kharrāb@en				36.309470	33.509222					
139	Maktab Anbar	oape	1850	https://github.com//OpenArabicPE/authority-files/data/tei/gazetteer_OpenArabicPE.TEIP5.xml		gn:8373421	Maktab Anbar@; Maktab ʿAnbar@ar-Latn-x-ijmes; British consulate@; مكتب عنبر@ar				36.30958	33.50997					
140	Mi’dhanat ash Shaḩm	oape	1850	https://github.com//OpenArabicPE/authority-files/data/tei/gazetteer_OpenArabicPE.TEIP5.xml		gn:7642478	Mazanet ash-Shahm@; Mi’dhanat ash Shaḩm@; Maʾdhanat al-Shaḥm@ar-Latn-x-ijmes; Mi’dhanat ash Shaḩm@en; مئذنة الشحم@ar				36.3085	33.5072					
142	Midān	oape	1850	https://github.com//OpenArabicPE/authority-files/data/tei/gazetteer_OpenArabicPE.TEIP5.xml		gn:93497	Midan@; Midān@; Meedan@; Mīdān@ar-Latn-x-ijmes; Midān@en				36.297517	33.488431					
143	Jizmatiyya	oape	1850	https://github.com//OpenArabicPE/authority-files/data/tei/gazetteer_OpenArabicPE.TEIP5.xml			Jizmatiyya@; Jizmātiyya@ar-Latn-x-ijmes; Shāriʿ al-Sināniyya@ar-ijmes										
144	Suwayqa	oape	1850	https://github.com//OpenArabicPE/authority-files/data/tei/gazetteer_OpenArabicPE.TEIP5.xml			Suwayqa@; Sūwayqa@ar-Latn-x-ijmes; Sūwayqa Street@; Souweqah@										
145	Lower Midan	oape	1850	https://github.com//OpenArabicPE/authority-files/data/tei/gazetteer_OpenArabicPE.TEIP5.xml			Lower Midan@; Mīdān al-taḥtāwī@ar-Latn-x-ijmes										
146	Sāḩat Bāb Muşallá	oape	1850	https://github.com//OpenArabicPE/authority-files/data/tei/gazetteer_OpenArabicPE.TEIP5.xml		gn:7642484	Bab Musalla@; Sāḩat Bāb Muşallá@; Bāb Muṣallā@ar-Latn-x-ijmes; Sāḩat Bāb Muşallá@en; ساحة اليرموك@ar; ساحة باب مصلى@ar				36.30045	33.49886					
147	Qabratkeh	oape	1850	https://github.com//OpenArabicPE/authority-files/data/tei/gazetteer_OpenArabicPE.TEIP5.xml		gn:7642481	Qabratkeh@; Qabr al-ʿĀtika@ar-Latn-x-ijmes; قبر عاتكة@ar				36.2949	33.5023					
148	Bab Sarija	oape	1850	https://github.com//OpenArabicPE/authority-files/data/tei/gazetteer_OpenArabicPE.TEIP5.xml		gn:7642482	Bab Sarija@; Bāb Sarīja@ar-Latn-x-ijmes; باب سريجة@ar				36.2982	33.5049					
150	Upper Midan	oape	1850	https://github.com//OpenArabicPE/authority-files/data/tei/gazetteer_OpenArabicPE.TEIP5.xml			Upper Midan@; Mīdān al-fawqānī@ar-Latn-x-ijmes										
151	Bab Misr	oape	1850	https://github.com//OpenArabicPE/authority-files/data/tei/gazetteer_OpenArabicPE.TEIP5.xml			Bab Misr/ Bawwaba Allah@; Bāb Miṣr@ar-Latn-x-ijmes; Bawābat Allah@; Bawwābat Allah@; Bab Misr@en										
153	Duma (kaza)	oape	1850	https://github.com//OpenArabicPE/authority-files/data/tei/gazetteer_OpenArabicPE.TEIP5.xml			Duma (kaza)@										
154	Douma	oape	1850	https://github.com//OpenArabicPE/authority-files/data/tei/gazetteer_OpenArabicPE.TEIP5.xml		gn:170592	Duma@; Douma@; Dūmā@ar-Latn-x-ijmes; Douma@en; Dūmā@ar; دوما@ar				36.4027	33.57175					
155	Harista	oape	1850	https://github.com//OpenArabicPE/authority-files/data/tei/gazetteer_OpenArabicPE.TEIP5.xml		gn:169897	Harista@; Harasta@; Ḥaristā@ar-Latn-x-ijmes; حرستا@ar				36.36515	33.55869					
156	Jabal Qalamun (kaza)	oape	1850	https://github.com//OpenArabicPE/authority-files/data/tei/gazetteer_OpenArabicPE.TEIP5.xml		gn:166237	Jabal Qalamun (kaza)@; Qalamun@; Qalāmūn@; Jabal Qalamūn@ar-Latn-x-ijmes; جبل قلمون@ar				36.44801	33.62882					
157	Sidnaya	oape	1850	https://github.com//OpenArabicPE/authority-files/data/tei/gazetteer_OpenArabicPE.TEIP5.xml		gn:164717	Sednaya@; Şaydnāyā@; Ṣaydnāyā@ar-Latn-x-ijmes; Sidnaya@en; صيدنايا@ar; Said Naya@; Said Nâya@; Saydnaya@; Sednaya@; Seidnaya@; Seyd Naya@; sydnaya@				36.37301	33.69768					
158	Al Qurayyat	oape	1850	https://github.com//OpenArabicPE/authority-files/data/tei/gazetteer_OpenArabicPE.TEIP5.xml		gn:108648	Nabk@; Nebk@; al-Nabk@; النبك@ar; Al Qurayyat@en; Gurayat@en; Qurayyat@en				36.730134	34.022298					
159	Nāḩiyat Dayr ‘Aţīyah	oape	1850	https://github.com//OpenArabicPE/authority-files/data/tei/gazetteer_OpenArabicPE.TEIP5.xml		gn:7895199	Dayr Atiyya@; Nāḩiyat Dayr ‘Aţīyah@; Dayr ʿAṭiyya@ar-Latn-x-ijmes; Nāḩiyat Dayr ‘Aţīyah@en; ناحية دير عطية@ar; Nahiyat Dayr `Atiyah@; Nāḩiyat Dayr ‘Aţīyah@; Dayr Atiyah@; دير عطية@ar				36.75974	34.143					
160	Nāḩiyat Ma‘lūlā	oape	1850	https://github.com//OpenArabicPE/authority-files/data/tei/gazetteer_OpenArabicPE.TEIP5.xml		gn:7894734	Maaloula@; Ma‘lūlā@; Maʿlūlā@ar-Latn-x-ijmes; Nāḩiyat Ma‘lūlā@en; ناحية معلولا@ar; Maaloula@fr; Nahiyat Ma`lula@; Nāḩiyat Ma‘lūlā@; معلولا@ar				36.57539	33.8249					
161	Yabrūd	oape	1850	https://github.com//OpenArabicPE/authority-files/data/tei/gazetteer_OpenArabicPE.TEIP5.xml		gn:162627	Yabrud@; Yabrūd@; Yabrūd@ar-Latn-x-ijmes; Yabroud@; Yabrūd@en; يبرود@ar				36.65741	33.96736					
162	Baalbek	oape	1850	https://github.com//OpenArabicPE/authority-files/data/tei/gazetteer_OpenArabicPE.TEIP5.xml		gn:277130	Baalbek (kaza)@; Baalbec@; Baalbek@; Baʿalbak@ar-Latn-x-ijmes; Baʿalbek@; بعلبك@ar; Baalbek@en; Baalbek@fr; Baalbek@de				36.21806	34.00583					
163	قلعة بعلبك	oape	1850	https://github.com//OpenArabicPE/authority-files/data/tei/gazetteer_OpenArabicPE.TEIP5.xml			قلعة بعلبك@ar										
165	Bekaa (kaza)	oape	1850	https://github.com//OpenArabicPE/authority-files/data/tei/gazetteer_OpenArabicPE.TEIP5.xml		gn:280282	Bekaa (kaza)@; Biqāʿ@ar-Latn-x-ijmes; Beqāʿ@; Beka'a@; Bekaa@; Beqaa@; محافظة البقاع@ar; Bekaa@fr				35.83333	33.66667					
166	Zahle	oape	1850	https://github.com//OpenArabicPE/authority-files/data/tei/gazetteer_OpenArabicPE.TEIP5.xml		gn:266045	Zahle@; Zahlé@; Zaḥla@ar-Latn-x-ijmes; Zahle@en; زحلة@ar; زحله@ar; Zahlé@fr; Zahlé@de; Zahle@tr				35.90417	33.84972					
167	Riyaq	oape	1850	https://github.com//OpenArabicPE/authority-files/data/tei/gazetteer_OpenArabicPE.TEIP5.xml		gn:268661	Riyak@; Rayak@; Riyāq@ar-Latn-x-ijmes; رياق@ar; Riyaq@en				36	33.85					
168	Hâsbaïya	oape	1850	https://github.com//OpenArabicPE/authority-files/data/tei/gazetteer_OpenArabicPE.TEIP5.xml		gn:274313	Hasbeya@; Hâsbaïya@; Ḥāṣbayā@ar-Latn-x-ijmes; Hâsbaïya@en; حاصبيا@ar				35.685	33.39778					
169	Wadi al-Ajm	oape	1850	https://github.com//OpenArabicPE/authority-files/data/tei/gazetteer_OpenArabicPE.TEIP5.xml			Wadi al-Ajm@; Wādī al-ʿAjm@ar-Latn-x-ijmes; قضاء وادي العجم@ar										
170	Kaza of Rasheya	oape	1850	https://github.com//OpenArabicPE/authority-files/data/tei/gazetteer_OpenArabicPE.TEIP5.xml		gn:268737	Caza de Rachaïya@; Qaḍāʾ Rāshayā@ar-Latn-x-ijmes; Kaza of Rasheya@en; قضاء راشيا@ar; Caza de Rachaiya@; Caza de Rachaïya@; Qada' Rashayya@; Qaḑā’ Rāshayyā@				35.83333	33.53333					
171	راشيا	oape	1850	https://github.com//OpenArabicPE/authority-files/data/tei/gazetteer_OpenArabicPE.TEIP5.xml		gn:268737	راشيا@ar				35.83333	33.53333					
172	Deraa	oape	1850	https://github.com//OpenArabicPE/authority-files/data/tei/gazetteer_OpenArabicPE.TEIP5.xml		gn:170905	Deraa@; Darʿā@ar-Latn-x-ijmes; Derʿā@; درعا@ar				36.10213	32.61889					
173	لواء حماة	oape	1850	https://github.com//OpenArabicPE/authority-files/data/tei/gazetteer_OpenArabicPE.TEIP5.xml			لواء حماة@ar										
174	Hama District	oape	1850	https://github.com//OpenArabicPE/authority-files/data/tei/gazetteer_OpenArabicPE.TEIP5.xml		gn:170016	Hama (District)@; منطقة حماة@ar; Hama District@en				37.12626	35.28577					
175	Hama	oape	1850	https://github.com//OpenArabicPE/authority-files/data/tei/gazetteer_OpenArabicPE.TEIP5.xml		gn:170017	Hama@; Ḩamāh@; Ḥamāh@ar-Latn-x-ijmes; Hama@en; حماة@ar; حماه@ar; Hama@fr; Hama@de				36.75783	35.13179					
176	Homs	oape	1850	https://github.com//OpenArabicPE/authority-files/data/tei/gazetteer_OpenArabicPE.TEIP5.xml		gn:169577	Homs@; Homs@; Ḥomṣ@ar-Latn-x-ijmes; Ḥumṣ@; Ḥimṣ@; Homs@en; Ḩimş@ar; حمص@ar; مدينة حمص@ar; Homs@fr; Homs@de; Humus@tr				36.72339	34.72682					
177	Maarrat al-Nu'maan	oape	1850	https://github.com//OpenArabicPE/authority-files/data/tei/gazetteer_OpenArabicPE.TEIP5.xml		gn:167611	Maarrat al-Nu'maan@; Ma‘arrat an Nu‘mān@; Maʿarrat al-Nuʿmān@ar-Latn-x-ijmes; معرة النعمان@ar; Ma`arrat@; Maaret en Numan@; Ma‘arrat@; Maaret ul-Nou'man@fr; Maʿarat ul-Nuʿmān@				36.67693	35.6483					
178	Hawran (District)	oape	1850	https://github.com//OpenArabicPE/authority-files/data/tei/gazetteer_OpenArabicPE.TEIP5.xml			Hawran (District)@; Hawran@; Hauran@; Ḥawrān@ar-Latn-x-ijmes										
179	Suwayda	oape	1850	https://github.com//OpenArabicPE/authority-files/data/tei/gazetteer_OpenArabicPE.TEIP5.xml		gn:350739	Suweida@; al-Suwaida@; Suwaydāʾ@ar-Latn-x-ijmes; Suwayda@en				36.566071	32.706268					
180	al-Shaykh Maskīn	oape	1850	https://github.com//OpenArabicPE/authority-files/data/tei/gazetteer_OpenArabicPE.TEIP5.xml		gn:164328	al-Shaykh Maskīn@; Al Sheikh Maskin@; Shaykh Maskīn@ar-Latn-x-ijmes; الشيخ مسكين@ar				36.15933	32.82944					
181	Mezerib	oape	1850	https://github.com//OpenArabicPE/authority-files/data/tei/gazetteer_OpenArabicPE.TEIP5.xml		gn:166503	Mezerib@en; Al Muzayrīb@; Muzayrīb@ar-ijmes; Muzerib@; Muzayrib@en; Müzeyreb@tr; المزيريب@ar				36.02743	32.71099					
182	Buşrá al Ḩarīrī	oape	1850	https://github.com//OpenArabicPE/authority-files/data/tei/gazetteer_OpenArabicPE.TEIP5.xml		gn:171127	Bosr al-Harir@; Buşra al Ḩarīrī@; Buṣr al-Ḥarīr@ar-Latn-x-ijmes; Buşrá al Ḩarīrī@en; بصر الحرير@ar				36.34077	32.84456					
183	Bosra al-Sham	oape	1850	https://github.com//OpenArabicPE/authority-files/data/tei/gazetteer_OpenArabicPE.TEIP5.xml		gn:171126	Bosra eski Sham@; Buṣrā eskī shām@ar-Latn-x-ijmes; Bosra al-Sham@en; بصرى الشام@ar; Bosra@fr; Bostra@de				36.48256	32.52013					
184	Ajloun	oape	1850	https://github.com//OpenArabicPE/authority-files/data/tei/gazetteer_OpenArabicPE.TEIP5.xml		gn:250799	Ajlun@; ‘Ajlūn@; ʿAjalūn@; ʿAjlūn@ar-Latn-x-ijmes; Ajloun@en; ‘Ajlūn@ar-Latn-EN; عجلون@ar				35.75238	32.33385					
185	Qanawāt	oape	1850	https://github.com//OpenArabicPE/authority-files/data/tei/gazetteer_OpenArabicPE.TEIP5.xml		gn:166141	Qanawat@; Qanawāt@; Qanawāt@ar-Latn-x-ijmes; Qanawāt@en; قنوات@ar				36.6173	32.75696					
186	Ledja	oape	1850	https://github.com//OpenArabicPE/authority-files/data/tei/gazetteer_OpenArabicPE.TEIP5.xml		gn:173573	Laja@; Al Lajāh@; Lajā@ar-Latn-x-ijmes; Ledja@en; اللجاه@ar; Laja@; Lajah@; Lajā@; Lajāh@; Leja@; Ledja@; Laja'@; Ledje@; alljah@				36.385	32.93481					
187	Jabal ad Durūz	oape	1850	https://github.com//OpenArabicPE/authority-files/data/tei/gazetteer_OpenArabicPE.TEIP5.xml		gn:170560	Jabal Druz@; Jabal ad Durūz@; Jabal al-Durūz@ar-Latn-x-ijmes; Jebel Druze@; Jebel Drūze@; Jabal Hawran@; Jabal Ḥawrān@; Jabal ad Durūz@en; حوران@ar; جبل حوران@ar				36.727888	32.547050					
188	Kuneitrah	oape	1850	https://github.com//OpenArabicPE/authority-files/data/tei/gazetteer_OpenArabicPE.TEIP5.xml		gn:173334	Quneitra@; Al Qunayţirah@; Qunayṭra@ar-Latn-x-ijmes; Kuneitrah@en; القنيطرة@ar; Al Qunaytirah@; Quneitrah@; El Kuneitra@; El Qnaitra@; El Qnaïtra@; El Quneitra@; Kuneitra@; Kuneïtra@; Qhaitra@; Qnaitra@; Qnaytra@; Qnayţra@; Qnaïtra@; Qunaytirah@; Qunayturah@; Qunayţirah@; Qunayţurah@; Quneitra@				35.82461	33.12594					
189	Majdal Shams	oape	1850	https://github.com//OpenArabicPE/authority-files/data/tei/gazetteer_OpenArabicPE.TEIP5.xml		gn:167444	Majdal Shams@; Majdal Shams@; Majdal Shams@ar-Latn-x-ijmes; Majdal Shams@en; مجدل شمس@ar				35.76972	33.27					
190	ببترا	oape	1850	https://github.com//OpenArabicPE/authority-files/data/tei/gazetteer_OpenArabicPE.TEIP5.xml			ببترا@ar										
191	لواء الكرك	oape	1850	https://github.com//OpenArabicPE/authority-files/data/tei/gazetteer_OpenArabicPE.TEIP5.xml		gn:8621697	لواء الكرك@ar				35.82527	31.16121					
376	Beerseba	oape	1850	https://github.com//OpenArabicPE/authority-files/data/tei/gazetteer_OpenArabicPE.TEIP5.xml		gn:295530	Beerseba@en; Beer Sheva@en; بئر السبع@ar; Beer-Sheva@fr; Be’er Scheva@de; Beerşeba@tr				34.7913	31.25181					
508	Amman	oape	1850	https://github.com//OpenArabicPE/authority-files/data/tei/gazetteer_OpenArabicPE.TEIP5.xml		gn:250441	Amman@; عمّان@ar; Amman@en; Amman@fr; Amman@de; Amman@tr				35.94503	31.95522					
192	Ma'an	oape	1850	https://github.com//OpenArabicPE/authority-files/data/tei/gazetteer_OpenArabicPE.TEIP5.xml		gn:248382	Ma'an@; Ma‘ān@; Maʿān@ar-Latn-x-ijmes; Ma'an@en; Maan@en; معان@ar				35.73405	30.19624					
193	قضاء الكرك	oape	1850	https://github.com//OpenArabicPE/authority-files/data/tei/gazetteer_OpenArabicPE.TEIP5.xml			قضاء الكرك@ar										
194	Kerak	oape	1850	https://github.com//OpenArabicPE/authority-files/data/tei/gazetteer_OpenArabicPE.TEIP5.xml		gn:2022932	Kerak@; Karak@; Karak@ar-Latn-x-ijmes; Kerak@en; الكرك@ar				35.705195	31.184791					
195	قضاء الطفيلة	oape	1850	https://github.com//OpenArabicPE/authority-files/data/tei/gazetteer_OpenArabicPE.TEIP5.xml			قضاء الطفيلة@ar										
196	al-Ṭafīla	oape	1850	https://github.com//OpenArabicPE/authority-files/data/tei/gazetteer_OpenArabicPE.TEIP5.xml		gn:249382	al-Ṭafīla@; Wādī al Ghuwayr@; Wādī al Ghuwayr@ar-Latn-x-ijmes; Wadi Tafila@; Wadi Tafīla@; Wadi al Ghuwayr@; Wadi at Tafilah@; Wadi el Ghuweir@; Wādī al Ghuwayr@; Wādī aţ Ţafīlah@; Wādī el Ghuweir@; وادي الطفيلة@ar; وادي الغوير@ar				35.5883	30.85125					
197	Belqa (District)	oape	1850	https://github.com//OpenArabicPE/authority-files/data/tei/gazetteer_OpenArabicPE.TEIP5.xml			Belqa (District)@; Belqāʾ@ar-Latn-x-ijmes										
198	Zarqa	oape	1850	https://github.com//OpenArabicPE/authority-files/data/tei/gazetteer_OpenArabicPE.TEIP5.xml		gn:250090	Zarqa@; Zarqāʾ@ar-Latn-x-ijmes; Zarqa@; ʿAyn al-Zarqāʾ@ar-Latn-x-ijmes; Ain Zerka@; Ain Zarqa@; Ain ez Zarka@; Ain ez Zarqa@; ʿAyn Zarqāʾ@; ʿAyn Zerka@; Ain-Zerka@; Az Zarqa'@; Az Zarqā’@; Kalaat el Zerka@; Qal'at az Zarqa'@; Qalʿa al-Zarqā’@; Zarka@; Zarqa@; Zerka@; الزرقاء@ar; زرقاء@ar; عين الزرفا@ar; Zarqa@en; Zarka@fr; Zarqa@de				36.08796	32.07275					
199	al-Salt	oape	1850	https://github.com//OpenArabicPE/authority-files/data/tei/gazetteer_OpenArabicPE.TEIP5.xml		gn:250258	al-Salṭ@; As Salţ@; al-Salṭ@ar-Latn-x-ijmes; al-Salt@en; السلط@ar				35.72722	32.03917					
200	Khirbat al-Samrāʾ	oape	1850	https://github.com//OpenArabicPE/authority-files/data/tei/gazetteer_OpenArabicPE.TEIP5.xml		gn:250609	Khirbat al-Samrāʾ@; Al Khirbah as Samrā’@; Khirbat al-Samrāʾ@ar-Latn-x-ijmes; Al Khirbah as Samra'@; Al Khirbah as Samrā’@; El Khirba es Samra@; Khirbat as Samra'@; Khirbat as Samrā’@; Khirbat es Samra@; Khirbet el Samra@; Khirbet es Samra@; Khurbet el Samra@; الخربة السمراء@ar; خربة السمراء@ar				36.16477	32.1796					
201	Al Mafraq	oape	1850	https://github.com//OpenArabicPE/authority-files/data/tei/gazetteer_OpenArabicPE.TEIP5.xml		gn:250582	Qalʿat al-Mafraq@; Al Mafraq@; Al Mafraq@ar-Latn-x-ijmes; Qalʿat al-Mafraq@ar-Latn-x-ijmes; Al Mafraq@; El-Fedein@; Kalat el Mafrak@; Mafraq@; Qal'at al Mafraq@; Qal'at el Mafraq@; المفرق@ar; Al Mafraq@en; Mafraq@en				36.20804	32.34289					
202	Palestine	oape	1850	https://github.com//OpenArabicPE/authority-files/data/tei/gazetteer_OpenArabicPE.TEIP5.xml		gn:6254930	Palestine@en; فلسطين@ar; Territoire palestinien@fr; Palästinensische Autonomiegebiete@de; Filistin Bölgesi@tr				35.20329	31.92157					
378	Hebron	oape	1850	https://github.com//OpenArabicPE/authority-files/data/tei/gazetteer_OpenArabicPE.TEIP5.xml		gn:285066	الخليل@ar; Hebron@en; Hébron@fr; Hebron@de; El Halil@tr				35.0938	31.52935					
425	Bethlehem	oape	1850	https://github.com//OpenArabicPE/authority-files/data/tei/gazetteer_OpenArabicPE.TEIP5.xml		gn:284315	Bethlehem@en; Betlehem@en; بيت لحم@ar; بَيْت لَحْم@ar; Bethléem@fr; Bait Lahm@de; Betlehem@de; Betlehem@tr				35.20376	31.70487					
504	Tulkarm	oape	1850	https://github.com//OpenArabicPE/authority-files/data/tei/gazetteer_OpenArabicPE.TEIP5.xml		gn:281577	Ṭūl Karam@ar-Latn-x-ijmes; طول كرم@ar; Tulkarm@en; Tulkarem@fr; Tulkarem@de				35.0269	32.31156					
208	Mount Hermon	oape	1850	https://github.com//OpenArabicPE/authority-files/data/tei/gazetteer_OpenArabicPE.TEIP5.xml		gn:169612	Mt.Hermon@; Mt Hermon@; جبل الشيخ@ar; Mount Hermon@en				35.85741	33.41379					
395	Mount Carmel	oape	1850	https://github.com//OpenArabicPE/authority-files/data/tei/gazetteer_OpenArabicPE.TEIP5.xml		gn:294579	جبل الكرمل@ar; Mount Carmel@en; Karmel@de				35.05411	32.72852					
614	Ihdin	oape	1850	https://github.com//OpenArabicPE/authority-files/data/tei/gazetteer_OpenArabicPE.TEIP5.xml		gn:273725	Ihdin@ar-Latn-x-ijmes; اهدن@ar				35.965	34.29111					
615	Zighartā	oape	1850	https://github.com//OpenArabicPE/authority-files/data/tei/gazetteer_OpenArabicPE.TEIP5.xml			Zighartā@ar-Latn-x-ijmes; زغرتا@ar										
413	Kiftīn ( Lebanon )	oape	1850	https://github.com//OpenArabicPE/authority-files/data/tei/gazetteer_OpenArabicPE.TEIP5.xml			Kiftīn ( Lebanon )@ar-Latn-x-ijmes; كفتين (لبنان)@ar										
203	Mount Lebanon	oape	1850	https://github.com//OpenArabicPE/authority-files/data/tei/gazetteer_OpenArabicPE.TEIP5.xml		gn:273607	لبنان@ar; جبل لبنان@ar; Mount Lebanon@en; Jabal Lubnān@ar-Latn-x-ijmes; Mont-Liban@fr				35.66667	33.91667					
204	البترون	oape	1850	https://github.com//OpenArabicPE/authority-files/data/tei/gazetteer_OpenArabicPE.TEIP5.xml		gn:280328	البترون@ar; Batroun@ar-Latn-FR				35.65806	34.25528					
207	الحدث	oape	1850	https://github.com//OpenArabicPE/authority-files/data/tei/gazetteer_OpenArabicPE.TEIP5.xml		gn:280134	الحدث@ar; al-Ḥadath@ar-Latn-x-ijmes				35.53333	33.83333					
441	al-Dāmūr	oape	1850	https://github.com//OpenArabicPE/authority-files/data/tei/gazetteer_OpenArabicPE.TEIP5.xml		gn:280789	al-Dāmūr@ar-Latn-x-ijmes; الدامور@ar				35.45639	33.73					
370	الشويفات	oape	1850	https://github.com//OpenArabicPE/authority-files/data/tei/gazetteer_OpenArabicPE.TEIP5.xml		gn:8134087	الشويفات@ar; al-Shuwayfāt@ar-Latn-x-ijmes				31.40942	30.00806					
452	Ihdin and Zighartā	oape	1850	https://github.com//OpenArabicPE/authority-files/data/tei/gazetteer_OpenArabicPE.TEIP5.xml		gn:273725	Ihdin and Zighartā@ar-Latn-x-ijmes; اهدن وزغرتا@ar				35.965	34.29111					
455	Biḥamdūn	oape	1850	https://github.com//OpenArabicPE/authority-files/data/tei/gazetteer_OpenArabicPE.TEIP5.xml		gn:276633	Biḥamdūn@ar-Latn-x-ijmes; بحمدون@ar				35.65111	33.795					
457	Baskintā	oape	1850	https://github.com//OpenArabicPE/authority-files/data/tei/gazetteer_OpenArabicPE.TEIP5.xml		gn:276463	Baskintā@ar-Latn-x-ijmes; بسكنتى@ar				35.7875	33.94417					
205	بعبدا	oape	1850	https://github.com//OpenArabicPE/authority-files/data/tei/gazetteer_OpenArabicPE.TEIP5.xml		gn:277226	بعبدا@ar				35.54417	33.83389					
459	Baʿabdāt	oape	1850	https://github.com//OpenArabicPE/authority-files/data/tei/gazetteer_OpenArabicPE.TEIP5.xml		gn:277224	Baʿabdāt@ar-Latn-x-ijmes; بعبدات@ar				35.6725	33.89111					
469	Bayt Shabāb	oape	1850	https://github.com//OpenArabicPE/authority-files/data/tei/gazetteer_OpenArabicPE.TEIP5.xml		gn:276692	Bayt Shabāb@ar-Latn-x-ijmes; بيت شباب@ar				35.67222	33.93083					
470	Bīkfayā	oape	1850	https://github.com//OpenArabicPE/authority-files/data/tei/gazetteer_OpenArabicPE.TEIP5.xml		gn:276605	Bīkfayā@ar-Latn-x-ijmes; بيكفيى@ar				35.68306	33.92222					
475	Jubayl	oape	1850	https://github.com//OpenArabicPE/authority-files/data/tei/gazetteer_OpenArabicPE.TEIP5.xml		gn:11432730	Jubayl@ar-Latn-x-ijmes; جبيل@ar				36.70519	34.94472					
206	Jounieh	oape	1850	https://github.com//OpenArabicPE/authority-files/data/tei/gazetteer_OpenArabicPE.TEIP5.xml		gn:8041193	Jounieh@ar-Latn-FR; جونية@ar				36.15134	33.41627					
377	Ḥarīṣā	oape	1850	https://github.com//OpenArabicPE/authority-files/data/tei/gazetteer_OpenArabicPE.TEIP5.xml		gn:274349	Ḥarīṣā@und-Latn; حريصا@ar				35.65917	33.98222					
476	Ḥammānā	oape	1850	https://github.com//OpenArabicPE/authority-files/data/tei/gazetteer_OpenArabicPE.TEIP5.xml		gn:274652	Ḥammānā@ar-Latn-x-ijmes; حمانى@ar				35.73472	33.82583					
478	Darʿūn	oape	1850	https://github.com//OpenArabicPE/authority-files/data/tei/gazetteer_OpenArabicPE.TEIP5.xml		gn:275761	Darʿūn@ar-Latn-x-ijmes; درعون@ar				35.65861	33.97722					
484	Dayr al-Qamar	oape	1850	https://github.com//OpenArabicPE/authority-files/data/tei/gazetteer_OpenArabicPE.TEIP5.xml		gn:275655	Dayr al-Qamar@ar-Latn-x-ijmes; دير القمر@ar				35.56361	33.69778					
496	Safita	oape	1850	https://github.com//OpenArabicPE/authority-files/data/tei/gazetteer_OpenArabicPE.TEIP5.xml		gn:165060	Safita@en; Ṣāfītā@ar-Latn-x-ijmes; صافيتا@ar; برج صافيتا@ar				36.11773	34.82099					
505	ʿAbd Lillī	oape	1850	https://github.com//OpenArabicPE/authority-files/data/tei/gazetteer_OpenArabicPE.TEIP5.xml		gn:281028	ʿAbd Lillī@ar-Latn-x-ijmes; عبد للي@ar				35.72222	34.20667					
507	ʿAmshīt	oape	1850	https://github.com//OpenArabicPE/authority-files/data/tei/gazetteer_OpenArabicPE.TEIP5.xml		gn:278944	ʿAmshīt@ar-Latn-x-ijmes; عمشيت@ar				35.64435	34.14777					
509	ʿAyn Zaḥaltā	oape	1850	https://github.com//OpenArabicPE/authority-files/data/tei/gazetteer_OpenArabicPE.TEIP5.xml		gn:277378	ʿAyn Zaḥaltā@ar-Latn-x-ijmes; عين زحلتا@ar				35.69972	33.74194					
521	Kafr Ḥātā	oape	1850	https://github.com//OpenArabicPE/authority-files/data/tei/gazetteer_OpenArabicPE.TEIP5.xml		gn:272874	Kafr Ḥātā@ar-Latn-x-ijmes; كفر حاتى@ar				35.89944	34.38278					
522	Kafr Shīmā	oape	1850	https://github.com//OpenArabicPE/authority-files/data/tei/gazetteer_OpenArabicPE.TEIP5.xml		gn:272819	Kafr Shīmā@ar-Latn-x-ijmes; كفر شيمى@ar				35.5325	33.81639					
523	Kafr Matā	oape	1850	https://github.com//OpenArabicPE/authority-files/data/tei/gazetteer_OpenArabicPE.TEIP5.xml		gn:272847	Kafr Matā@ar-Latn-x-ijmes; كفر متى@ar				35.52917	33.72611					
551	Bayt al-Dīn	oape	1850	https://github.com//OpenArabicPE/authority-files/data/tei/gazetteer_OpenArabicPE.TEIP5.xml		gn:276771	Bayt al-Dīn@ar-Latn-x-ijmes; بيت الدين@ar				35.58083	33.69417					
557	al-Maḥmūdiyya	oape	1850	https://github.com//OpenArabicPE/authority-files/data/tei/gazetteer_OpenArabicPE.TEIP5.xml		gn:6272181	al-Maḥmūdiyya@ar-Latn-x-ijmes; المحمودية@ar				35.37056	33.54					
558	Barqa	oape	1850	https://github.com//OpenArabicPE/authority-files/data/tei/gazetteer_OpenArabicPE.TEIP5.xml		gn:11554090	Barqa@ar-Latn-x-ijmes; برقة@ar				36.49291	36.1456					
560	Burummānā	oape	1850	https://github.com//OpenArabicPE/authority-files/data/tei/gazetteer_OpenArabicPE.TEIP5.xml		gn:276377	Burummānā@ar-Latn-x-ijmes; برمّانا@ar				35.63056	33.88333					
564	Anfeh	oape	1850	https://github.com//OpenArabicPE/authority-files/data/tei/gazetteer_OpenArabicPE.TEIP5.xml		gn:278928	Anfeh@en; أنفة@ar				35.73083	34.3575					
371	بين النهرين	oape	1850	https://github.com//OpenArabicPE/authority-files/data/tei/gazetteer_OpenArabicPE.TEIP5.xml		gn:11260370	بين النهرين@ar; ما بين النهرين@ar				36.56886	33.28961					
209	Iraq	oape	1850	https://github.com//OpenArabicPE/authority-files/data/tei/gazetteer_OpenArabicPE.TEIP5.xml		gn:99237	العراق@ar; al-ʿIrāq@ar-Latn-x-ijmes; Iraq@en; Irak@fr; Irak@de; Irak@tr				44	33					
210	Basra	oape	1850	https://github.com//OpenArabicPE/authority-files/data/tei/gazetteer_OpenArabicPE.TEIP5.xml		gn:99532	Basra@; Al Başrah@; Baṣra@ar-Latn-x-ijmes; Basra@en; البصرة@ar; بصرة@ar; Bassorah@fr; Basra@de; Basra@tr				47.79747	30.53302					
211	Mosul	oape	1850	https://github.com//OpenArabicPE/authority-files/data/tei/gazetteer_OpenArabicPE.TEIP5.xml		gn:99072	Mosul@; Mosul@; الموصل@ar; الموصل الحدباء@ar; الحدباء@ar; Moṣūl@ar-Latn-x-ijmes; Mosul@en; Mossoul@fr; Mossul@de; Musul@tr				43.11889	36.335					
421	Al Hillah	oape	1850	https://github.com//OpenArabicPE/authority-files/data/tei/gazetteer_OpenArabicPE.TEIP5.xml		gn:99347	al-Ḥilla@ar-Latn-x-ijmes; الحلة@ar; Al Hillah@en; Hilla@fr; Hilla@de				44.41963	32.46367					
373	الديوانية	oape	1850	https://github.com//OpenArabicPE/authority-files/data/tei/gazetteer_OpenArabicPE.TEIP5.xml		gn:99762	الديوانية@ar; al-Dīwāniyya@ar-Latn-x-ijmes				44.92552	31.99289					
443	al-ʿAshshār	oape	1850	https://github.com//OpenArabicPE/authority-files/data/tei/gazetteer_OpenArabicPE.TEIP5.xml		gn:99577	al-ʿAshshār@ar-Latn-x-ijmes; العشار@ar				47.84078	30.51565					
444	Amara	oape	1850	https://github.com//OpenArabicPE/authority-files/data/tei/gazetteer_OpenArabicPE.TEIP5.xml		gn:99608	al-ʿAmāra@ar-Latn-x-ijmes; العمارة@ar; Amara@en				47.14483	31.83561					
374	Kazimiyya	oape	1850	https://github.com//OpenArabicPE/authority-files/data/tei/gazetteer_OpenArabicPE.TEIP5.xml		gn:447476	الكاظمية@ar; al-Kāẓimiyya@ar-Latn-x-ijmes; Kazimiyya@en				42.23989	37.18879					
372	Karbala	oape	1850	https://github.com//OpenArabicPE/authority-files/data/tei/gazetteer_OpenArabicPE.TEIP5.xml		gn:94824	كربلاء@ar; Karbalāʾ@ar-Latn-x-ijmes; Karbala@en; Karbala@fr; Kerbala@fr; Karbala@de; Kerbela@de; Kerbela@tr				44.02488	32.61603					
520	Kirkuk	oape	1850	https://github.com//OpenArabicPE/authority-files/data/tei/gazetteer_OpenArabicPE.TEIP5.xml		gn:1135214	Kirkuk@ar-Latn-x-ijmes; كركك@ar				65.41729	32.596					
212	ولاية بغداد	oape	1850	https://github.com//OpenArabicPE/authority-files/data/tei/gazetteer_OpenArabicPE.TEIP5.xml			ولاية بغداد@ar										
213	بابل	oape	1850	https://github.com//OpenArabicPE/authority-files/data/tei/gazetteer_OpenArabicPE.TEIP5.xml		gn:98227	بابل@ar				44.61667	32.53333					
214	آشور	oape	1850	https://github.com//OpenArabicPE/authority-files/data/tei/gazetteer_OpenArabicPE.TEIP5.xml		gn:45574	آشور@ar				51.2632	28.9836					
215	Najaf	oape	1850	https://github.com//OpenArabicPE/authority-files/data/tei/gazetteer_OpenArabicPE.TEIP5.xml		gn:98860	النجف@ar; النجف الأشرف@ar; al-Najaf@ar-Latn-x-ijmes; Najaf@ar-Latn-x-ijmes; نجف@ar; Najaf@en; Nadjaf@fr; Nadschaf@de; Necef@tr				44.34625	32.02594					
216	Baghdad	oape	1850	https://github.com//OpenArabicPE/authority-files/data/tei/gazetteer_OpenArabicPE.TEIP5.xml		gn:98182	Baghdad@; Baghdad@; Baghdād@ar-Latn-x-ijmes; Baghdad@en; بغداد@ar; بغداد الزوراء@ar; الزوراء@ar; دار السلام@ar; Bagdad@fr; Bagdad@de; Bağdat@tr				44.40088	33.34058					
217	الحجاز	oape	1850	https://github.com//OpenArabicPE/authority-files/data/tei/gazetteer_OpenArabicPE.TEIP5.xml		gn:11785447	الحجاز@ar				56.17266	23.56403					
218	Medina	oape	1850	https://github.com//OpenArabicPE/authority-files/data/tei/gazetteer_OpenArabicPE.TEIP5.xml		gn:109223	المدينة المنورة@ar; المدينة@ar; al-Madīna@ar-Latn-x-ijmes; Medina@en; Médine@fr; Medina@de; Medine@tr				39.61417	24.46861					
219	Jeddah	oape	1850	https://github.com//OpenArabicPE/authority-files/data/tei/gazetteer_OpenArabicPE.TEIP5.xml		gn:105343	جدة@ar; Jeddah@en; Djeddah@fr; Dschidda@de; Cidde@tr				39.19797	21.54238					
220	Mecca	oape	1850	https://github.com//OpenArabicPE/authority-files/data/tei/gazetteer_OpenArabicPE.TEIP5.xml		gn:104515	مكة@ar; مكة المكرمة@ar; Mecca@en; La Mecque@fr; Mekka@de; Mekke@tr				39.82563	21.42664					
221	جزيرة العرب	oape	1850	https://github.com//OpenArabicPE/authority-files/data/tei/gazetteer_OpenArabicPE.TEIP5.xml		gn:6957697	جزيرة العرب@ar; الجزيرة@ar				45	25					
222	Tripoli	oape	1850	https://github.com//OpenArabicPE/authority-files/data/tei/gazetteer_OpenArabicPE.TEIP5.xml		gn:2210247	طرابلس الغرب@ar; Ṭarāblus al-Gharb@ar-Latn-x-ijmes; Tripoli@en; Tripoli@fr; Tripolis@de; Trablus@tr				36.24247	33.49199					
417	Egypt	oape	1850	https://github.com//OpenArabicPE/authority-files/data/tei/gazetteer_OpenArabicPE.TEIP5.xml		gn:357994	Egypt@en; مصر@ar; Égypte@fr; Ägypten@de; Mısır@tr				30	27					
424	Mīt Ghamr	oape	1850	https://github.com//OpenArabicPE/authority-files/data/tei/gazetteer_OpenArabicPE.TEIP5.xml		gn:352180	Mīt Ghamr@ar-Latn-x-ijmes; ميت غمر@ar				31.32334	30.71247					
224	Aswan	oape	1850	https://github.com//OpenArabicPE/authority-files/data/tei/gazetteer_OpenArabicPE.TEIP5.xml		gn:359792	أسوان@ar; Aswan@en; Aswān@en; Assouan@fr; Assuan@de; Asvan@tr				32.89942	24.09082					
436	Asyut	oape	1850	https://github.com//OpenArabicPE/authority-files/data/tei/gazetteer_OpenArabicPE.TEIP5.xml		gn:359783	Asyut@en; أسيوط@ar				31.18368	27.18096					
225	Alexandria	oape	1850	https://github.com//OpenArabicPE/authority-files/data/tei/gazetteer_OpenArabicPE.TEIP5.xml		gn:361058	الإسكندرية@ar; الاسكندرية@ar; al-Iskandariyya@ar-Latn-x-ijmes; Alexandria@en; Alexandrie@fr; Alexandria@de; İskenderiye@tr				29.91582	31.20176					
438	Giza	oape	1850	https://github.com//OpenArabicPE/authority-files/data/tei/gazetteer_OpenArabicPE.TEIP5.xml		gn:360995	al-Jīza@ar-Latn-x-ijmes; الجيزة@ar; Giza@en; Gizeh@fr; Gizeh@de				31.20861	30.00944					
442	Zagazig	oape	1850	https://github.com//OpenArabicPE/authority-files/data/tei/gazetteer_OpenArabicPE.TEIP5.xml		gn:359493	al-Zaqāzīq@ar-Latn-x-ijmes; الزقازيق@ar; Zagazig@en; Zagazig@fr				31.502	30.58768					
445	Al Fayyum	oape	1850	https://github.com//OpenArabicPE/authority-files/data/tei/gazetteer_OpenArabicPE.TEIP5.xml		gn:361320	al-Fayyūm@ar-Latn-x-ijmes; الفيوم@ar; Al Fayyum@en; Fayoum@fr; al-Fayyum@de				30.8418	29.30995					
226	Cairo	oape	1850	https://github.com//OpenArabicPE/authority-files/data/tei/gazetteer_OpenArabicPE.TEIP5.xml		gn:360630	Cairo@en; القاهرة@ar; al-Qāhira@ar-Latn-x-ijmes; قاهرة@ar; مصر@ar; Le Caire@fr; Caire@fr; Kairo@de; Kahire@tr				31.24967	30.06263					
446	al-Qurashiyya	oape	1850	https://github.com//OpenArabicPE/authority-files/data/tei/gazetteer_OpenArabicPE.TEIP5.xml		gn:360545	al-Qurashiyya@ar-Latn-x-ijmes; القرشية@ar				31.12326	30.84703					
448	al-Maḥalla al-Kubrā	oape	1850	https://github.com//OpenArabicPE/authority-files/data/tei/gazetteer_OpenArabicPE.TEIP5.xml		gn:360829	al-Maḥalla al-Kubrā@ar-Latn-x-ijmes; المحلة الكبرى@ar				31.1669	30.97063					
450	Minya	oape	1850	https://github.com//OpenArabicPE/authority-files/data/tei/gazetteer_OpenArabicPE.TEIP5.xml		gn:360686	al-Minyā@ar-Latn-x-ijmes; المنيى@ar; Minya@en				30.75813	28.09193					
460	Bilbeis	oape	1850	https://github.com//OpenArabicPE/authority-files/data/tei/gazetteer_OpenArabicPE.TEIP5.xml		gn:358840	Balbīs@ar-Latn-x-ijmes; بلبيس@ar; Bilbeis@en; Bilbeis@de				31.56223	30.42039					
461	Balqās	oape	1850	https://github.com//OpenArabicPE/authority-files/data/tei/gazetteer_OpenArabicPE.TEIP5.xml		gn:358821	Balqās@ar-Latn-x-ijmes; بلقاس@ar				31.35798	31.21452					
462	Banha	oape	1850	https://github.com//OpenArabicPE/authority-files/data/tei/gazetteer_OpenArabicPE.TEIP5.xml		gn:359280	Banha@ar-Latn-x-ijmes; بنهة@ar				31.1842	30.45977					
463	Beni Suef	oape	1850	https://github.com//OpenArabicPE/authority-files/data/tei/gazetteer_OpenArabicPE.TEIP5.xml		gn:359173	Beni Suef@ar-Latn-EN; Benu Suef@ar-Latn-EN; بني سويف@ar				31.09785	29.07441					
464	Port Said	oape	1850	https://github.com//OpenArabicPE/authority-files/data/tei/gazetteer_OpenArabicPE.TEIP5.xml		gn:358619	Port Said@en; بور سعيد@ar; Port-Saïd@fr; Port Said@de				32.3019	31.26531					
227	Helwan	oape	1850	https://github.com//OpenArabicPE/authority-files/data/tei/gazetteer_OpenArabicPE.TEIP5.xml		gn:355795	حلوان@ar; Ḥalwān@ar-Latn-x-ijmes; Helwan@en				31.30084	29.84144					
479	Disūq	oape	1850	https://github.com//OpenArabicPE/authority-files/data/tei/gazetteer_OpenArabicPE.TEIP5.xml		gn:358108	Disūq@ar-Latn-x-ijmes; دسوق@ar				30.64784	31.13259					
228	Damanhur	oape	1850	https://github.com//OpenArabicPE/authority-files/data/tei/gazetteer_OpenArabicPE.TEIP5.xml		gn:358448	دمنهور@ar; Damanhur@en				30.46823	31.03408					
481	Damietta	oape	1850	https://github.com//OpenArabicPE/authority-files/data/tei/gazetteer_OpenArabicPE.TEIP5.xml		gn:358048	Dimyāṭ@ar-Latn-x-ijmes; Damietta@en; دمياط@ar; Damiette@fr; Damiette@de; Dimyat@tr				31.81332	31.41648					
485	Zaftī	oape	1850	https://github.com//OpenArabicPE/authority-files/data/tei/gazetteer_OpenArabicPE.TEIP5.xml		gn:346030	Zaftī@ar-Latn-x-ijmes; زفتي@ar				31.24425	30.7142					
492	Suez	oape	1850	https://github.com//OpenArabicPE/authority-files/data/tei/gazetteer_OpenArabicPE.TEIP5.xml		gn:359796	Suez@en; Suways@ar-Latn-x-ijmes; سويس@ar; Suez@fr; Sues@de; Süveyş@tr				32.52627	29.97371					
493	Shibin el-Kom	oape	1850	https://github.com//OpenArabicPE/authority-files/data/tei/gazetteer_OpenArabicPE.TEIP5.xml		gn:349158	Shabīn al-Kawm@ar-Latn-x-ijmes; Shibīn al-Kawm@ar-Latn-x-ijmes; Shibin el-Kom@en; شبين الكوم@ar				31.00904	30.55258					
494	Sharbīn	oape	1850	https://github.com//OpenArabicPE/authority-files/data/tei/gazetteer_OpenArabicPE.TEIP5.xml		gn:349114	Sharbīn@ar-Latn-x-ijmes; شربين@ar				31.5243	31.19688					
229	Tanta	oape	1850	https://github.com//OpenArabicPE/authority-files/data/tei/gazetteer_OpenArabicPE.TEIP5.xml		gn:347497	طنطا@ar; Ṭanṭā@ar-Latn-x-ijmes; Tanta@en; Tanta@de				31.00192	30.78847					
511	Fāqūs	oape	1850	https://github.com//OpenArabicPE/authority-files/data/tei/gazetteer_OpenArabicPE.TEIP5.xml		gn:356989	Fāqūs@ar-Latn-x-ijmes; فاقوس@ar				31.79697	30.72816					
230	كفر الزيات	oape	1850	https://github.com//OpenArabicPE/authority-files/data/tei/gazetteer_OpenArabicPE.TEIP5.xml		gn:354365	كفر الزيات@ar				30.81805	30.8248					
538	Al Mansurah	oape	1850	https://github.com//OpenArabicPE/authority-files/data/tei/gazetteer_OpenArabicPE.TEIP5.xml		gn:360761	المنصورة@ar; Manṣūra@ar-Latn-x-ijmes; منصورة@ar; Al Mansurah@en; Mansourah@fr; al-Mansura@de; Mansura@tr				31.38069	31.03637					
539	Minya	oape	1850	https://github.com//OpenArabicPE/authority-files/data/tei/gazetteer_OpenArabicPE.TEIP5.xml		gn:352344	Minya@ar-Latn-x-ijmes; منية@ar				31.64313	31.12624					
231	دار الكتب المصري	oape	1850	https://github.com//OpenArabicPE/authority-files/data/tei/gazetteer_OpenArabicPE.TEIP5.xml			دار الكتب المصري@ar										
232	Elephantine	oape	1850	https://github.com//OpenArabicPE/authority-files/data/tei/gazetteer_OpenArabicPE.TEIP5.xml		gn:359790	Eléphantine@fr; Elephantine@en; Elephantine@de				32.88938	24.08995					
223	Kitchener's Island	oape	1850	https://github.com//OpenArabicPE/authority-files/data/tei/gazetteer_OpenArabicPE.TEIP5.xml		gn:11072230	جزيرة أسوان@ar; Kitchener's Island@en				32.88695	24.09366					
388	Sudan	oape	1850	https://github.com//OpenArabicPE/authority-files/data/tei/gazetteer_OpenArabicPE.TEIP5.xml		gn:366755	السودان@ar; Sudan@en; Soudan@fr; Sudan@de; Sudan@tr				30	16					
439	Khartoum	oape	1850	https://github.com//OpenArabicPE/authority-files/data/tei/gazetteer_OpenArabicPE.TEIP5.xml		gn:379252	al-Kharṭūm@ar-Latn-x-ijmes; الخرطوم@ar; Khartoum@en; Khartoum@fr; Khartum@de; Hartum@tr				32.53241	15.55177					
233	Yemen	oape	1850	https://github.com//OpenArabicPE/authority-files/data/tei/gazetteer_OpenArabicPE.TEIP5.xml		gn:69543	اليمن@ar; Yemen@en; Yémen@fr; Jemen@de; Yemen@tr				47.5	15.5					
499	Sanaa	oape	1850	https://github.com//OpenArabicPE/authority-files/data/tei/gazetteer_OpenArabicPE.TEIP5.xml		gn:71137	Sanaa@en; صنعاء@ar; Sanaa@fr; Sanaa@de				44.20667	15.35472					
234	الروم إيلي	oape	1850	https://github.com//OpenArabicPE/authority-files/data/tei/gazetteer_OpenArabicPE.TEIP5.xml			الروم إيلي@ar; الروم أيلي@ar										
235	Edirne	oape	1850	https://github.com//OpenArabicPE/authority-files/data/tei/gazetteer_OpenArabicPE.TEIP5.xml		gn:747712	ادرنة@ar; Edirne@en; Édirne@fr; Edirne@de; Edirne@tr				26.55597	41.67719					
236	Salonica	oape	1850	https://github.com//OpenArabicPE/authority-files/data/tei/gazetteer_OpenArabicPE.TEIP5.xml		gn:734077	Salonica@en; سلانيك@ar; Thessalonique@fr; Thessaloniki@de; Selanik@tr				22.93086	40.64361					
237	مناستر	oape	1850	https://github.com//OpenArabicPE/authority-files/data/tei/gazetteer_OpenArabicPE.TEIP5.xml		gn:324603	مناستر@ar; منشستر@ar; Gökçekent@tr				32.84385	36.54468					
403	كيليكيا	oape	1850	https://github.com//OpenArabicPE/authority-files/data/tei/gazetteer_OpenArabicPE.TEIP5.xml			كيليكيا@ar										
238	Anatolia	oape	1850	https://github.com//OpenArabicPE/authority-files/data/tei/gazetteer_OpenArabicPE.TEIP5.xml		gn:323835	الاناضول@ar; Anatolia@en; Anatolien@de; Anadolu@tr				35	39					
239	Izmir	oape	1850	https://github.com//OpenArabicPE/authority-files/data/tei/gazetteer_OpenArabicPE.TEIP5.xml		gn:311046	ازمير@ar; Izmir@en; Izmir@fr; Izmir@de; İzmir@tr				27.13838	38.41273					
398	Diyarbakır	oape	1850	https://github.com//OpenArabicPE/authority-files/data/tei/gazetteer_OpenArabicPE.TEIP5.xml		gn:316541	Diyarbakır@tr; ديار بكر@ar; دبار بكر@ar; Diyarbakır@en; Diyarbakır@fr; Diyarbakır@de				40.21721	37.91363					
404	مدغشقر مدغكسر	oape	1850	https://github.com//OpenArabicPE/authority-files/data/tei/gazetteer_OpenArabicPE.TEIP5.xml			مدغشقر مدغكسر@ar										
384	اطنة	oape	1850	https://github.com//OpenArabicPE/authority-files/data/tei/gazetteer_OpenArabicPE.TEIP5.xml			اطنة@ar										
385	الترنسفال	oape	1850	https://github.com//OpenArabicPE/authority-files/data/tei/gazetteer_OpenArabicPE.TEIP5.xml			الترنسفال@ar										
393	جبال الخليل	oape	1850	https://github.com//OpenArabicPE/authority-files/data/tei/gazetteer_OpenArabicPE.TEIP5.xml			جبال الخليل@ar										
394	جبال طوروس	oape	1850	https://github.com//OpenArabicPE/authority-files/data/tei/gazetteer_OpenArabicPE.TEIP5.xml			جبال طوروس@ar										
396	جزيرة كليبولي	oape	1850	https://github.com//OpenArabicPE/authority-files/data/tei/gazetteer_OpenArabicPE.TEIP5.xml			جزيرة كليبولي@ar										
401	سلسلة جبال طوروس	oape	1850	https://github.com//OpenArabicPE/authority-files/data/tei/gazetteer_OpenArabicPE.TEIP5.xml			سلسلة جبال طوروس@ar										
402	قينارجة	oape	1850	https://github.com//OpenArabicPE/authority-files/data/tei/gazetteer_OpenArabicPE.TEIP5.xml			قينارجة@ar										
381	Northern America	oape	1850	https://github.com//OpenArabicPE/authority-files/data/tei/gazetteer_OpenArabicPE.TEIP5.xml		gn:7729890	أمريكا@ar; Northern America@en; Amérique septentrionale@fr; Nordamerika@de				-105.64453	54.77535					
387	Senegal	oape	1850	https://github.com//OpenArabicPE/authority-files/data/tei/gazetteer_OpenArabicPE.TEIP5.xml		gn:2245662	السنغال@ar; Senegal@en; Sénégal@fr; Senegal@de; Senegal@tr				-14.25	14.5					
397	خربوط	oape	1850	https://github.com//OpenArabicPE/authority-files/data/tei/gazetteer_OpenArabicPE.TEIP5.xml		gn:97385	خربوط@ar				43.90387	36.9031					
389	العجم	oape	1850	https://github.com//OpenArabicPE/authority-files/data/tei/gazetteer_OpenArabicPE.TEIP5.xml		gn:6755774	العجم@ar				45.51102	31.93787					
399	رأس العين	oape	1850	https://github.com//OpenArabicPE/authority-files/data/tei/gazetteer_OpenArabicPE.TEIP5.xml		gn:92041	رأس العين@ar				43.04323	37.06953					
400	رومية	oape	1850	https://github.com//OpenArabicPE/authority-files/data/tei/gazetteer_OpenArabicPE.TEIP5.xml		gn:11829477	رومية@ar				35.58182	33.80682					
271	اسوج	oape	1850	https://github.com//OpenArabicPE/authority-files/data/tei/gazetteer_OpenArabicPE.TEIP5.xml			اسوج@ar										
272	الجبل السود	oape	1850	https://github.com//OpenArabicPE/authority-files/data/tei/gazetteer_OpenArabicPE.TEIP5.xml			الجبل السود@ar										
273	الجمهورية الفضية	oape	1850	https://github.com//OpenArabicPE/authority-files/data/tei/gazetteer_OpenArabicPE.TEIP5.xml			الجمهورية الفضية@ar										
275	Australia	oape	1850	https://github.com//OpenArabicPE/authority-files/data/tei/gazetteer_OpenArabicPE.TEIP5.xml		gn:2077456	أوستراليا@ar; استراليا@ar; Australia@en; Australie@fr; Australien@de; Avustralya@tr				135	-25					
277	Belgium	oape	1850	https://github.com//OpenArabicPE/authority-files/data/tei/gazetteer_OpenArabicPE.TEIP5.xml		gn:2802361	Belgium@en; البلجيك@ar; Belgique@fr; Belgien@de; Belçika@tr				4.5	50.75					
279	Denmark	oape	1850	https://github.com//OpenArabicPE/authority-files/data/tei/gazetteer_OpenArabicPE.TEIP5.xml		gn:2623032	Denmark@en; الدانيمرك@ar; الدانيمارك@ar; Danemark@fr; Dänemark@de; Danimarka@tr				10	56					
280	China	oape	1850	https://github.com//OpenArabicPE/authority-files/data/tei/gazetteer_OpenArabicPE.TEIP5.xml		gn:1814991	الصين@ar; China@en; Chine@fr; China@de; Çin Halk Cumhuriyeti@tr				105	35					
415	Kuwait	oape	1850	https://github.com//OpenArabicPE/authority-files/data/tei/gazetteer_OpenArabicPE.TEIP5.xml		gn:285570	Kuwait@en; الكويت@ar; دَوْلَة اَلْكُوَيْت@ar; Koweït@fr; Kuwait@de; Kuveyt@tr				47.75	29.5					
281	Japan	oape	1850	https://github.com//OpenArabicPE/authority-files/data/tei/gazetteer_OpenArabicPE.TEIP5.xml		gn:1861060	اليابان@ar; يابان@ar; Japan@en; Japon@fr; Japan@de; Japonya@tr				139.75309	35.68536					
282	Greece	oape	1850	https://github.com//OpenArabicPE/authority-files/data/tei/gazetteer_OpenArabicPE.TEIP5.xml		gn:390903	اليونان@ar; Greece@en; Grèce@fr; Griechenland@de; Yunanistan@tr				22	39					
283	Bulgaria	oape	1850	https://github.com//OpenArabicPE/authority-files/data/tei/gazetteer_OpenArabicPE.TEIP5.xml		gn:732800	بلغاريا@ar; Bulgaria@en; Bulgarie@fr; Bulgarien@de; Bulgaristan@tr				25.25	42.66667					
284	Bolivia	oape	1850	https://github.com//OpenArabicPE/authority-files/data/tei/gazetteer_OpenArabicPE.TEIP5.xml		gn:3923057	بوليفيا@ar; Bolivia@en; Bolivie@fr; Bolivien@de; Bolivya@tr				-65	-17					
285	Peru	oape	1850	https://github.com//OpenArabicPE/authority-files/data/tei/gazetteer_OpenArabicPE.TEIP5.xml		gn:3932488	Peru@en; بيرو@ar; Pérou@fr; Peru@de; Peru@tr				-75.25	-10					
287	Romania	oape	1850	https://github.com//OpenArabicPE/authority-files/data/tei/gazetteer_OpenArabicPE.TEIP5.xml		gn:798549	رومانيا@ar; Romania@en; Roumanie@fr; Rumänien@de; Romanya@tr				25	46					
416	Lebanon	oape	1850	https://github.com//OpenArabicPE/authority-files/data/tei/gazetteer_OpenArabicPE.TEIP5.xml		gn:272103	Lebanon@en; Lubnān@ar-Latn-x-ijmes; لبنان@ar; Liban@fr; Libanon@de; Lübnan@tr				35.83333	33.83333					
288	Norway	oape	1850	https://github.com//OpenArabicPE/authority-files/data/tei/gazetteer_OpenArabicPE.TEIP5.xml		gn:3144096	Norway@en; نروج@ar; Norvège@fr; Norwegen@de; Norveç@tr				10	62					
274	Henchir Er-Roman	oape	1850	https://github.com//OpenArabicPE/authority-files/data/tei/gazetteer_OpenArabicPE.TEIP5.xml		gn:11904140	الرومان@ar; Henchir Er-Roman@en				9.55962	36.21903					
276	Uruguay	oape	1850	https://github.com//OpenArabicPE/authority-files/data/tei/gazetteer_OpenArabicPE.TEIP5.xml		gn:3439705	Uruguay@en; الارغواي@ar; Uruguay@fr; Uruguay@de; Uruguay@tr				-56	-33					
541	Montevideo	oape	1850	https://github.com//OpenArabicPE/authority-files/data/tei/gazetteer_OpenArabicPE.TEIP5.xml		gn:3441575	Montevideo@en; مونتفيدو@ar; Montevideo@fr; Montevideo@de; Montevideo@tr				-56.18816	-34.90328					
278	Algeria	oape	1850	https://github.com//OpenArabicPE/authority-files/data/tei/gazetteer_OpenArabicPE.TEIP5.xml		gn:2589581	Algeria@en; الجزائر@ar; Algérie@fr; Algerien@de; Cezayir@tr				3	28					
437	Algiers	oape	1850	https://github.com//OpenArabicPE/authority-files/data/tei/gazetteer_OpenArabicPE.TEIP5.xml		gn:2507480	Algiers@en; الجزائر@ar; Alger@fr; Algier@de; Cezayir@tr				3.08746	36.73225					
515	Constantine	oape	1850	https://github.com//OpenArabicPE/authority-files/data/tei/gazetteer_OpenArabicPE.TEIP5.xml		gn:2501152	Constantine@en; قسنطينة@ar; Constantine@fr; Constantine@de				6.61472	36.365					
286	Chile	oape	1850	https://github.com//OpenArabicPE/authority-files/data/tei/gazetteer_OpenArabicPE.TEIP5.xml		gn:3871336	Chile@en; تشيلي@ar; Santiago du Chili@fr; Santiago de Chile@de; Santiago@tr				-70.64827	-33.45694					
526	Concepción	oape	1850	https://github.com//OpenArabicPE/authority-files/data/tei/gazetteer_OpenArabicPE.TEIP5.xml		gn:3893894	Concepción@en; كونثبثيون، تشيلي@ar; Concepción@fr; Concepción@de; Concepcion@tr				-73.04977	-36.82699					
289	Switzerland	oape	1850	https://github.com//OpenArabicPE/authority-files/data/tei/gazetteer_OpenArabicPE.TEIP5.xml		gn:2658434	سويسرا@ar; Switzerland@en; Suisse@fr; Schweiz@de; İsviçre@tr				8.01427	47.00016					
290	Bern	oape	1850	https://github.com//OpenArabicPE/authority-files/data/tei/gazetteer_OpenArabicPE.TEIP5.xml		gn:2661552	Bern@de; برن@de-Arab-AR; بيرن@ar; Bern@en; Berne@fr; Bern@tr				7.44744	46.94809					
291	Geneva	oape	1850	https://github.com//OpenArabicPE/authority-files/data/tei/gazetteer_OpenArabicPE.TEIP5.xml		gn:2660646	جنيف@fr-Arab-AR; جنيف@ar; Geneva@en; Genève@fr; Genf@de; Cenevre@tr				6.14569	46.20222					
292	Zurich	oape	1850	https://github.com//OpenArabicPE/authority-files/data/tei/gazetteer_OpenArabicPE.TEIP5.xml		gn:2657896	زوريخ@de-Arab-AR; زيورخ@ar; Zurich@en; Zurich@fr; Zürich@de; Zürih@tr				8.55	47.36667					
293	India	oape	1850	https://github.com//OpenArabicPE/authority-files/data/tei/gazetteer_OpenArabicPE.TEIP5.xml		gn:1269750	الهند@ar; بلاد الهند@ar; India@en; Inde@fr; Indien@de; Hindistan@tr				79	22					
423	Bombay	oape	1850	https://github.com//OpenArabicPE/authority-files/data/tei/gazetteer_OpenArabicPE.TEIP5.xml		gn:1275339	Bombay@ar-Latn-x-ijmes; ممباي@ar; Bombay@en; Mumbai@en; Bombay@fr; Mumbai@fr; Mumbai@de; Bombay@tr; Mumbai@tr				72.88261	19.07283					
480	Delhi	oape	1850	https://github.com//OpenArabicPE/authority-files/data/tei/gazetteer_OpenArabicPE.TEIP5.xml		gn:1273294	Delhi@en; دلهي@ar; Delhi@fr; Delhi@de				77.23149	28.65195					
524	Calcutta	oape	1850	https://github.com//OpenArabicPE/authority-files/data/tei/gazetteer_OpenArabicPE.TEIP5.xml		gn:1275004	Calcutta@en; كلكتا@ar; Calcutta@fr; Kalkutta@de; Kalküta@tr				88.36304	22.56263					
294	Lucknow	oape	1850	https://github.com//OpenArabicPE/authority-files/data/tei/gazetteer_OpenArabicPE.TEIP5.xml		gn:1264733	Lucknow@en; مدينة لكنأو@ar; Lucknow@fr; Lucknow@de				80.92313	26.83928					
296	Portugal	oape	1850	https://github.com//OpenArabicPE/authority-files/data/tei/gazetteer_OpenArabicPE.TEIP5.xml		gn:2264397	Portugal@en; البرتقال@ar; Portugal@fr; Portugal@de; Portekiz@tr				-8.13057	39.6945					
297	Algarve	oape	1850	https://github.com//OpenArabicPE/authority-files/data/tei/gazetteer_OpenArabicPE.TEIP5.xml		gn:2271989	Algarve@fr; الكراف@fr-Arab-AR; Algarve@en				-8.15642	37.18849					
298	Santarém	oape	1850	https://github.com//OpenArabicPE/authority-files/data/tei/gazetteer_OpenArabicPE.TEIP5.xml		gn:2263478	Santarem@fr; سانتارم@fr-Arab-AR; Santarém@en; Santarém@de				-8.50192	39.28881					
295	Toulouse	oape	1850	https://github.com//OpenArabicPE/authority-files/data/tei/gazetteer_OpenArabicPE.TEIP5.xml		gn:2972315	Tolosa@fr; طلوسه@ar; Toulouse@en; Toulouse@de				1.44367	43.60426					
299	Iran	oape	1850	https://github.com//OpenArabicPE/authority-files/data/tei/gazetteer_OpenArabicPE.TEIP5.xml		gn:130758	إيران@ar; Iran@en; Iran@fr; Iran (Islamische Republik)@de; İran@tr				53	32					
495	Shiraz	oape	1850	https://github.com//OpenArabicPE/authority-files/data/tei/gazetteer_OpenArabicPE.TEIP5.xml		gn:115019	Shiraz@en; شيراز@ar; Chiraz@fr; Schiras@de; Şiraz@tr				52.53113	29.61031					
300	Tehran	oape	1850	https://github.com//OpenArabicPE/authority-files/data/tei/gazetteer_OpenArabicPE.TEIP5.xml		gn:112931	طهران@ar; Tehran@en; Téhéran@fr; Teheran@de; Tahran@tr				51.42151	35.69439					
501	Ṭahṭā	oape	1850	https://github.com//OpenArabicPE/authority-files/data/tei/gazetteer_OpenArabicPE.TEIP5.xml		gn:8685944	Ṭahṭā@ar-Latn-x-ijmes; طهطى@ar				61.82161	27.96017					
301	United States	oape	1850	https://github.com//OpenArabicPE/authority-files/data/tei/gazetteer_OpenArabicPE.TEIP5.xml		gn:6252001	الولايات المتحدة@ar; الولايات المتحدة الأميركية@ar; أميركا@ar; أمريكا@ar; United States@en; États-Unis@fr; USA@de; Amerika Birleşik Devletleri@tr				-98.5	39.76					
433	Washington, DC	oape	1850	https://github.com//OpenArabicPE/authority-files/data/tei/gazetteer_OpenArabicPE.TEIP5.xml		gn:4140963	Washington, DC@en; Washington@fr; Washington@de				-77.03637	38.89511					
302	Providence	oape	1850	https://github.com//OpenArabicPE/authority-files/data/tei/gazetteer_OpenArabicPE.TEIP5.xml		gn:5224151	بروفيدنس@ar; Providence@en; Providence@fr; Providence@de				-71.41283	41.82399					
303	New York City	oape	1850	https://github.com//OpenArabicPE/authority-files/data/tei/gazetteer_OpenArabicPE.TEIP5.xml		gn:5128581	New York City@en; نيويورك@ar; نيويرك@ar; New York@fr; New York City@de; New York@tr				-74.00597	40.71427					
304	Nebraska	oape	1850	https://github.com//OpenArabicPE/authority-files/data/tei/gazetteer_OpenArabicPE.TEIP5.xml		gn:5073708	Nebraska@en; نبراسكا@ar; Nebraska@fr				-99.75067	41.50028					
305	Omaha	oape	1850	https://github.com//OpenArabicPE/authority-files/data/tei/gazetteer_OpenArabicPE.TEIP5.xml		gn:5074472	اوماها@ar; أوماها@ar; Omaha@en; Omaha@fr; Omaha@de; Omaha@tr				-95.94043	41.25626					
306	Lincoln	oape	1850	https://github.com//OpenArabicPE/authority-files/data/tei/gazetteer_OpenArabicPE.TEIP5.xml		gn:5072006	لنكلن@en-Arab-AR; Lincoln@en; لنكن@ar; Lincoln@fr; Lincoln@de				-96.66696	40.8					
307	Virginia	oape	1850	https://github.com//OpenArabicPE/authority-files/data/tei/gazetteer_OpenArabicPE.TEIP5.xml		gn:943882	Virginia@en; فرجينيا@en-Arab-AR				26.86593	-28.10391					
308	Boston	oape	1850	https://github.com//OpenArabicPE/authority-files/data/tei/gazetteer_OpenArabicPE.TEIP5.xml		gn:4930956	بوستون@en-Arab-AR; بوسطن@ar; Boston@en; Boston@fr; Boston@de; Boston@tr				-71.05977	42.35843					
514	Fall River	oape	1850	https://github.com//OpenArabicPE/authority-files/data/tei/gazetteer_OpenArabicPE.TEIP5.xml		gn:4936159	Fall River@en; فول ريفر@ar				-71.15505	41.70149					
528	Lawrence	oape	1850	https://github.com//OpenArabicPE/authority-files/data/tei/gazetteer_OpenArabicPE.TEIP5.xml		gn:4941720	Lawrence@en; لورانس@ar; لورنس@ar; Lawrence@fr				-71.16311	42.70704					
309	Alaska	oape	1850	https://github.com//OpenArabicPE/authority-files/data/tei/gazetteer_OpenArabicPE.TEIP5.xml		gn:5879092	Alaska@en; الالاسكا@en-Arab-AR; ولاية الالاسكا@ar; Alaska@fr				-150.00028	64.00028					
311	San Francisco	oape	1850	https://github.com//OpenArabicPE/authority-files/data/tei/gazetteer_OpenArabicPE.TEIP5.xml		gn:3621911	San Francisco@en; سان فرنسيسكو@en-Arab-AR				-84.12934	9.99299					
310	California	oape	1850	https://github.com//OpenArabicPE/authority-files/data/tei/gazetteer_OpenArabicPE.TEIP5.xml		gn:11071615	California@en; كليفورنيا@ar				-116.78467	34.68743					
312	ولاية ايلينوا	oape	1850	https://github.com//OpenArabicPE/authority-files/data/tei/gazetteer_OpenArabicPE.TEIP5.xml			ولاية ايلينوا@ar										
313	Springfield	oape	1850	https://github.com//OpenArabicPE/authority-files/data/tei/gazetteer_OpenArabicPE.TEIP5.xml		gn:4250542	Springfield@en; سبرنجفيلد@en-Arab-Ar; سبرينج فيلد، إلينوي@ar; Springfield@fr; Springfield@de				-89.64371	39.80172					
314	Chicago	oape	1850	https://github.com//OpenArabicPE/authority-files/data/tei/gazetteer_OpenArabicPE.TEIP5.xml		gn:4887398	شيكاغو@ar; Chicago@en; Chicago@fr; Chicago@de; Şikago@tr				-87.65005	41.85003					
315	Philadelphia	oape	1850	https://github.com//OpenArabicPE/authority-files/data/tei/gazetteer_OpenArabicPE.TEIP5.xml		gn:4560349	فيلادلفيا@ar; Philadelphia@en; Philadelphie@fr; Philadelphia@de; Philadelphia@tr				-75.16379	39.95233					
316	Kansas	oape	1850	https://github.com//OpenArabicPE/authority-files/data/tei/gazetteer_OpenArabicPE.TEIP5.xml		gn:4393217	Kansas@en; ولاية كنساس@ar; Kansas City@fr; Kansas City@de; Kansas City@tr				-94.57857	39.09973					
317	Iowa	oape	1850	https://github.com//OpenArabicPE/authority-files/data/tei/gazetteer_OpenArabicPE.TEIP5.xml		gn:4862182	ولاية أيوا@ar; أيوا@ar; Iowa@en; Iowa@fr; Iowa@de; Iowa@tr				-93.50049	42.00027					
554	Terre Haute	oape	1850	https://github.com//OpenArabicPE/authority-files/data/tei/gazetteer_OpenArabicPE.TEIP5.xml		gn:4265737	Terre Haute@en; تير هوت@ar				-87.41391	39.4667					
483	Detroit	oape	1850	https://github.com//OpenArabicPE/authority-files/data/tei/gazetteer_OpenArabicPE.TEIP5.xml		gn:4990729	Detroit@en; ديترويت@ar; Détroit@fr; Detroit@de; Detroit@tr				-83.04575	42.33143					
542	Minneapolis	oape	1850	https://github.com//OpenArabicPE/authority-files/data/tei/gazetteer_OpenArabicPE.TEIP5.xml		gn:5037649	Minneapolis@en; مينيابولس@ar; Minneapolis@fr; Minneapolis@de; Minneapolis@tr				-93.26384	44.97997					
318	New Jersey	oape	1850	https://github.com//OpenArabicPE/authority-files/data/tei/gazetteer_OpenArabicPE.TEIP5.xml		gn:6955102	New Jersey@en; ولاية نيوجرسي@ar				-73.91327	40.75766					
319	Sandy Hook	oape	1850	https://github.com//OpenArabicPE/authority-files/data/tei/gazetteer_OpenArabicPE.TEIP5.xml		gn:6140756	ساندي هوك@ar; Sandy Hook@en				-76.37299	45.44931					
553	Cleveland	oape	1850	https://github.com//OpenArabicPE/authority-files/data/tei/gazetteer_OpenArabicPE.TEIP5.xml		gn:5150529	Cleveland@en; كليفلاند@ar; Cleveland@fr; Cleveland@de; Cleveland@tr				-81.69541	41.4995					
320	جورودس	oape	1850	https://github.com//OpenArabicPE/authority-files/data/tei/gazetteer_OpenArabicPE.TEIP5.xml			جورودس@ar; Guerudès@fr										
321	France	oape	1850	https://github.com//OpenArabicPE/authority-files/data/tei/gazetteer_OpenArabicPE.TEIP5.xml		gn:3017382	فرنسا@ar; France@en; France@fr; Frankreich@de; Fransa@tr				2	46					
322	Paris	oape	1850	https://github.com//OpenArabicPE/authority-files/data/tei/gazetteer_OpenArabicPE.TEIP5.xml		gn:2988507	Paris@fr; باريز@ar; باريس@ar; Paris@en; Paris@de; Paris@tr				2.3488	48.85341					
466	Bordeaux	oape	1850	https://github.com//OpenArabicPE/authority-files/data/tei/gazetteer_OpenArabicPE.TEIP5.xml		gn:3031582	Bordeaux@en; بوردو@ar; Bordeaux@fr; Bordeaux@de				-0.5805	44.84044					
323	Lyon	oape	1850	https://github.com//OpenArabicPE/authority-files/data/tei/gazetteer_OpenArabicPE.TEIP5.xml		gn:2996944	Lyon@fr; ليون@fr-Arab-AR; ليون@ar; Lyon@en; Lyon@de; Lyon@tr				4.84671	45.74846					
533	Marseille	oape	1850	https://github.com//OpenArabicPE/authority-files/data/tei/gazetteer_OpenArabicPE.TEIP5.xml		gn:2995469	Marseille@fr; مرسيليا@ar; Marseille@en; Marseille@de; Marsilya@tr				5.38107	43.29695					
324	Italy	oape	1850	https://github.com//OpenArabicPE/authority-files/data/tei/gazetteer_OpenArabicPE.TEIP5.xml		gn:3175395	إيطاليا@ar; Italy@en; Italie@fr; Italien@de; İtalya@tr				12.83333	42.83333					
325	Bologna	oape	1850	https://github.com//OpenArabicPE/authority-files/data/tei/gazetteer_OpenArabicPE.TEIP5.xml		gn:3181928	بولونيا@ar; Bologna@en; Bologne@fr; Bologna@de; Bolonya@tr				11.33875	44.49381					
612	Rome	oape	1850	https://github.com//OpenArabicPE/authority-files/data/tei/gazetteer_OpenArabicPE.TEIP5.xml		gn:3169070	Rome@en; روما@ar; Rome@fr; Rom@de; Roma@tr				12.51133	41.89193					
518	Cagliari, Sardinia	oape	1850	https://github.com//OpenArabicPE/authority-files/data/tei/gazetteer_OpenArabicPE.TEIP5.xml		gn:2525473	Cagliari, Sardinia@en; كالياري@ar; Cagliari@fr; Cagliari@de; Cagliari@tr				9.11917	39.23054					
529	Livorno	oape	1850	https://github.com//OpenArabicPE/authority-files/data/tei/gazetteer_OpenArabicPE.TEIP5.xml		gn:3174659	Livorno@it; ليفورنو@ar; Livorno@en; Livourne@fr; Livorno@de; Livorno@tr				10.32615	43.54427					
326	Milan	oape	1850	https://github.com//OpenArabicPE/authority-files/data/tei/gazetteer_OpenArabicPE.TEIP5.xml		gn:3173435	ميلان@ar; Milan@en; Milan@fr; Mailand@de; Milano@tr				9.18951	45.46427					
555	Nicosia, Cyprus	oape	1850	https://github.com//OpenArabicPE/authority-files/data/tei/gazetteer_OpenArabicPE.TEIP5.xml		gn:146268	Nicosia, Cyprus@en; نيقوسيا@ar; Nicosie@fr; Nikosia@de; Lefkoşa@tr				33.3642	35.17531					
327	Britain	oape	1850	https://github.com//OpenArabicPE/authority-files/data/tei/gazetteer_OpenArabicPE.TEIP5.xml		gn:2635167	إنكلترا@ar; انكلترا@ar; Britain@en; Great Britain@en; UK@en; U.K.@en; United Kingdom@en; United Kingdom of Great Britain and Northern Ireland@en; Grande-Bretagne@fr; Royaume-Uni@fr; Großbritannien@de; Großbritannien und Nordirland@de; Vereinigtes Königreich@de; Birleşik Krallık@tr; İngiltere@tr				-2.69531	54.75844					
328	Oxford	oape	1850	https://github.com//OpenArabicPE/authority-files/data/tei/gazetteer_OpenArabicPE.TEIP5.xml		gn:2640729	اكسفورد@ar; أكسفورد@ar; Oxford@en; Oxford@fr; Oxford@de; Oxford@tr				-1.25596	51.75222					
329	Glasgow	oape	1850	https://github.com//OpenArabicPE/authority-files/data/tei/gazetteer_OpenArabicPE.TEIP5.xml		gn:2648579	غلاسكو@ar; Glasgow@en; Glasgow@fr; Glasgow@de				-4.25763	55.86515					
330	Lancaster	oape	1850	https://github.com//OpenArabicPE/authority-files/data/tei/gazetteer_OpenArabicPE.TEIP5.xml		gn:2644972	لانكاستر@en-Arab-AR; لانكاستر@ar; Lancaster@en; Lancaster@fr; Lancaster@de; Lancaster@tr				-2.79988	54.04649					
331	London	oape	1850	https://github.com//OpenArabicPE/authority-files/data/tei/gazetteer_OpenArabicPE.TEIP5.xml		gn:2643743	لندن@ar; لندرا@ar; London@en; Londres@fr; London@de; Londra@tr				-0.12574	51.50853					
332	Tunisia	oape	1850	https://github.com//OpenArabicPE/authority-files/data/tei/gazetteer_OpenArabicPE.TEIP5.xml		gn:2464461	Tunisia@en; المملكة التونسية@ar; Tunisie@fr; Tunesien@de; Tunus@tr				9	34					
447	Kairouan	oape	1850	https://github.com//OpenArabicPE/authority-files/data/tei/gazetteer_OpenArabicPE.TEIP5.xml		gn:2473449	al-Qayrawān@ar-Latn-x-ijmes; القيروان@ar; Kairouan@en; Kairouan@fr; Qairawān@de; Kayravan@tr				10.09633	35.6781					
333	Tunis	oape	1850	https://github.com//OpenArabicPE/authority-files/data/tei/gazetteer_OpenArabicPE.TEIP5.xml		gn:2464470	تونس@ar; Tunis@en; Tunis@fr; Tunis@de; Tunus@tr				10.16579	36.81897					
497	Sfax	oape	1850	https://github.com//OpenArabicPE/authority-files/data/tei/gazetteer_OpenArabicPE.TEIP5.xml		gn:2467454	Sfax@en; صفاقس@ar; Sfax@fr; Sfax@de; Safakes@tr				10.76028	34.74056					
334	Spain	oape	1850	https://github.com//OpenArabicPE/authority-files/data/tei/gazetteer_OpenArabicPE.TEIP5.xml		gn:2521750	Spain@en; إسبانيا@ar				-4.5	37.6					
335	Granada	oape	1850	https://github.com//OpenArabicPE/authority-files/data/tei/gazetteer_OpenArabicPE.TEIP5.xml		gn:2517117	غرناطة@ar; Granada@en; Grenade@fr; Granada@de; Granada@tr				-3.60667	37.18817					
336	Andalusia	oape	1850	https://github.com//OpenArabicPE/authority-files/data/tei/gazetteer_OpenArabicPE.TEIP5.xml		gn:2593109	Andalusia@en; الأندلس@ar; Andalousie@fr; Andalusien@de; Endülüs@tr				-4.5	37.6					
337	مملكة مراكش	oape	1850	https://github.com//OpenArabicPE/authority-files/data/tei/gazetteer_OpenArabicPE.TEIP5.xml			مملكة مراكش@ar										
440	Casablanca	oape	1850	https://github.com//OpenArabicPE/authority-files/data/tei/gazetteer_OpenArabicPE.TEIP5.xml		gn:2553604	al-Dār al-Bayḍāʾ@ar-Latn-x-ijmes; الدار البيضاء@ar; Casablanca@en; Casablanca@fr; Casablanca@de; Dâr-ül-Beydâ@tr				-7.61138	33.58831					
568	Rabat	oape	1850	https://github.com//OpenArabicPE/authority-files/data/tei/gazetteer_OpenArabicPE.TEIP5.xml		gn:2538475	Rabāṭ@ar-Latn-x-ijmes; Rabat@und-Latn; الرباط@ar; رباط@ar; Rabat@en; Rabat@fr; Rabat@de; Rabat@tr				-6.83255	34.01325					
473	Tétouan	oape	1850	https://github.com//OpenArabicPE/authority-files/data/tei/gazetteer_OpenArabicPE.TEIP5.xml		gn:2528910	Taṭawān@ar-Latn-x-ijmes; تطوان@ar; Tétouan@en; Tétouan@fr; Tétouan@de; Tetuan@tr				-5.36837	35.57845					
500	Tangier	oape	1850	https://github.com//OpenArabicPE/authority-files/data/tei/gazetteer_OpenArabicPE.TEIP5.xml		gn:2530335	Tangier@en; طنجة@ar; Tanger@fr; Tanger@de				-5.79975	35.76727					
338	Fes	oape	1850	https://github.com//OpenArabicPE/authority-files/data/tei/gazetteer_OpenArabicPE.TEIP5.xml		gn:2548885	فاس@ar; Fes@en; Fez@en; Fès@fr; Fès@de; Fes@tr				-5.00028	34.03313					
339	Germany	oape	1850	https://github.com//OpenArabicPE/authority-files/data/tei/gazetteer_OpenArabicPE.TEIP5.xml		gn:2921044	ألمانيا@ar; الامبراطورية الألمانية@ar; Germany@en; Allemagne@fr; Deutschland@de; Almanya@tr				10.5	51.5					
340	Saxony	oape	1850	https://github.com//OpenArabicPE/authority-files/data/tei/gazetteer_OpenArabicPE.TEIP5.xml		gn:2842567	Saxony@en; إمارة ساكس@ar; Sachsen@de				13	51					
341	Prussia	oape	1850	https://github.com//OpenArabicPE/authority-files/data/tei/gazetteer_OpenArabicPE.TEIP5.xml		gn:3082436	Prussia@en; بروسيا@ar; Prusse Occidentale@fr; Westpreussen@de				18	53.5					
342	Halle	oape	1850	https://github.com//OpenArabicPE/authority-files/data/tei/gazetteer_OpenArabicPE.TEIP5.xml		gn:2911522	Halle@de; Halle@en; Halle@fr				11.97947	51.48158					
343	Berlin	oape	1850	https://github.com//OpenArabicPE/authority-files/data/tei/gazetteer_OpenArabicPE.TEIP5.xml		gn:2950159	برلين@ar; Berlin@en; Berlin@fr; Berlin@de; Berlin@tr				13.41053	52.52437					
405	Frankfurt	oape	1850	https://github.com//OpenArabicPE/authority-files/data/tei/gazetteer_OpenArabicPE.TEIP5.xml		gn:2925533	فرانكفورت@ar; Frankfurt@de; Frankfurt@en; Frankfurt am Main@en; Francfort-sur-le-Main@fr; Frankfurt@tr				8.68417	50.11552					
344	Leipzig	oape	1850	https://github.com//OpenArabicPE/authority-files/data/tei/gazetteer_OpenArabicPE.TEIP5.xml		gn:2879139	ليبسيك@ar; Leipzig@de; Leipzig@en; Leipzig@fr; Leipzig@tr				12.37129	51.33962					
546	Hamburg	oape	1850	https://github.com//OpenArabicPE/authority-files/data/tei/gazetteer_OpenArabicPE.TEIP5.xml		gn:2911298	Hamburg@en; هامبورغ@ar; Hambourg@fr; Hamburg@de; Hamburg@tr				9.99302	53.55073					
345	Heidelberg	oape	1850	https://github.com//OpenArabicPE/authority-files/data/tei/gazetteer_OpenArabicPE.TEIP5.xml		gn:2907911	هايدلبرغ@ar; Heidelberg@de; Heidelberg@en; Heidelberg@fr; Heidelberg@tr				8.69079	49.40768					
346	Austria	oape	1850	https://github.com//OpenArabicPE/authority-files/data/tei/gazetteer_OpenArabicPE.TEIP5.xml		gn:2782113	Autriche@fr; النمسا@ar; Austria@en; Österreich@de; Avusturya@tr				13.33333	47.33333					
375	Budapest	oape	1850	https://github.com//OpenArabicPE/authority-files/data/tei/gazetteer_OpenArabicPE.TEIP5.xml		gn:3054643	بودابست@ar; بودابشت@ar; Budapest@en; Budapest@fr; Budapest@de; Budapeşte@tr				19.04045	47.49835					
347	Salzburg	oape	1850	https://github.com//OpenArabicPE/authority-files/data/tei/gazetteer_OpenArabicPE.TEIP5.xml		gn:2766824	Salzburg@fr; سالزبورغ@ar; Salzburg@en; Salzburg@de				13.04399	47.79941					
348	Vienna	oape	1850	https://github.com//OpenArabicPE/authority-files/data/tei/gazetteer_OpenArabicPE.TEIP5.xml		gn:2761369	فينا@ar; Vienna@en; Vienne@fr; Wien@de; Viyana@tr				16.37208	48.20849					
390	Sweden	oape	1850	https://github.com//OpenArabicPE/authority-files/data/tei/gazetteer_OpenArabicPE.TEIP5.xml		gn:2661886	Sweden@en; بلاد السويد@ar; Suède@fr; Schweden@de; İsveç@tr				15	62					
382	Uppsala	oape	1850	https://github.com//OpenArabicPE/authority-files/data/tei/gazetteer_OpenArabicPE.TEIP5.xml		gn:2666199	Uppsala@; أوبسال@ar; Uppsala@en; Uppsala@fr; Uppsala@de				17.63889	59.85882					
349	Stockholm	oape	1850	https://github.com//OpenArabicPE/authority-files/data/tei/gazetteer_OpenArabicPE.TEIP5.xml		gn:2673730	Stockholm@en; استوكهولم@ar; Stockholm@fr; Stockholm@de; Stockholm@tr				18.0649	59.33258					
350	Gotland	oape	1850	https://github.com//OpenArabicPE/authority-files/data/tei/gazetteer_OpenArabicPE.TEIP5.xml		gn:2711511	Gotland@en; جوتلاند@ar; Gotland@fr; Gotland@de; Gotland@tr				18.55	57.5					
255	شارتونبرغ	oape	1850	https://github.com//OpenArabicPE/authority-files/data/tei/gazetteer_OpenArabicPE.TEIP5.xml			شارتونبرغ@ar										
351	Russia	oape	1850	https://github.com//OpenArabicPE/authority-files/data/tei/gazetteer_OpenArabicPE.TEIP5.xml		gn:2017370	روسيا@ar; Russia@en; Russie@fr; Russland@de; Rusya@tr				100	60					
352	Orenburg	oape	1850	https://github.com//OpenArabicPE/authority-files/data/tei/gazetteer_OpenArabicPE.TEIP5.xml		gn:515003	Orenburg@en; أورنبورغ@ru-Arab-AR; أورينبورغ@ar; Orenbourg@fr; Orenburg@de				55.0988	51.7727					
353	al-Mūskī	oape	1850	https://github.com//OpenArabicPE/authority-files/data/tei/gazetteer_OpenArabicPE.TEIP5.xml		gn:9179530	الموسكي@ar; al-Mūskī@en				31.25634	30.0486					
354	Baku	oape	1850	https://github.com//OpenArabicPE/authority-files/data/tei/gazetteer_OpenArabicPE.TEIP5.xml		gn:587084	باكو@ar; Baku@en; Bakou@fr; Baku@de; Bakü@tr				49.89201	40.37767					
355	St. Petersburg	oape	1850	https://github.com//OpenArabicPE/authority-files/data/tei/gazetteer_OpenArabicPE.TEIP5.xml		gn:498817	St. Petersburg@en; Leningrad@en; بطرسبرج@ar; Saint-Pétersbourg@fr; Sankt Petersburg@de; Sankt Peterburg@tr				30.31413	59.93863					
356	Kazan	oape	1850	https://github.com//OpenArabicPE/authority-files/data/tei/gazetteer_OpenArabicPE.TEIP5.xml		gn:551487	Kazan@en; قزان@ar; Kazan@fr; Kasan@de				49.12214	55.78874					
357	Moscow	oape	1850	https://github.com//OpenArabicPE/authority-files/data/tei/gazetteer_OpenArabicPE.TEIP5.xml		gn:524901	Moscow@en; موسقو@ar; Moscou@fr; Moskau@de; Moskova@tr				37.61556	55.75222					
358	Novgorod	oape	1850	https://github.com//OpenArabicPE/authority-files/data/tei/gazetteer_OpenArabicPE.TEIP5.xml		gn:520555	Novgorod@en; نوفوغوردو@ar; Nijni Novgorod@fr; Nischni Nowgorod@de				44.00205	56.32867					
359	Caucasus	oape	1850	https://github.com//OpenArabicPE/authority-files/data/tei/gazetteer_OpenArabicPE.TEIP5.xml		gn:615318	Caucasus@en; القافقاس@ar				45	42					
248	Bakhchysarai	oape	1850	https://github.com//OpenArabicPE/authority-files/data/tei/gazetteer_OpenArabicPE.TEIP5.xml		gn:712969	Bakhchysarai@en; بعجه سراي@ar; باختشيساراي@ar; Bakhtchyssaraï@fr; Bachtschyssaraj@de; Bahçesaray@tr				33.85782	44.75525					
360	Crimea	oape	1850	https://github.com//OpenArabicPE/authority-files/data/tei/gazetteer_OpenArabicPE.TEIP5.xml		gn:703884	القريم@ru-Arab-AR; Crimea@en				34	45					
361	Argentina	oape	1850	https://github.com//OpenArabicPE/authority-files/data/tei/gazetteer_OpenArabicPE.TEIP5.xml		gn:3865483	الأرجنتين@ar; الارجنتين@ar; Argentina@en; Argentine@fr; Argentinien@de; Arjantin@tr				-64	-34					
362	Buenos Aires	oape	1850	https://github.com//OpenArabicPE/authority-files/data/tei/gazetteer_OpenArabicPE.TEIP5.xml		gn:3435910	Buenos Aires@en; بونس أيرس@ar; بونس آيرس@ar; بوينس ايرس@ar; Buenos Aires@fr; Buenos Aires@de				-58.37723	-34.61315					
525	Cordóba	oape	1850	https://github.com//OpenArabicPE/authority-files/data/tei/gazetteer_OpenArabicPE.TEIP5.xml		gn:3860259	Cordóba@en; كوردوبا@ar; Córdoba@fr; Córdoba@de				-64.18105	-31.4135					
537	Mendoza	oape	1850	https://github.com//OpenArabicPE/authority-files/data/tei/gazetteer_OpenArabicPE.TEIP5.xml		gn:3844421	Mendoza@en; مندوزا@ar; Mendoza@fr; Mendoza@de				-68.82717	-32.89084					
363	Brazil	oape	1850	https://github.com//OpenArabicPE/authority-files/data/tei/gazetteer_OpenArabicPE.TEIP5.xml		gn:3469034	Brazil@en; بلاد برازيل@ar; البرازيل@ar; Brésil@fr; Brasilien@de; Brezilya@tr				-55	-10					
431	Salto (Oriental)	oape	1850	https://github.com//OpenArabicPE/authority-files/data/tei/gazetteer_OpenArabicPE.TEIP5.xml		gn:3450594	Salto (Oriental)@en				-47.28694	-23.20083					
380	Rio de Janeiro	oape	1850	https://github.com//OpenArabicPE/authority-files/data/tei/gazetteer_OpenArabicPE.TEIP5.xml		gn:3451190	ريو دي جانيرو@ar; Rio de Janeiro@en; Rio de Janeiro@fr; Rio de Janeiro@de; Rio de Janeiro@tr				-43.18223	-22.90642					
364	Sao Paolo	oape	1850	https://github.com//OpenArabicPE/authority-files/data/tei/gazetteer_OpenArabicPE.TEIP5.xml		gn:3448439	سان باولو@ar; Sao Paolo@en; ساو باولو@ar; São Paulo@en; São Paulo@fr; São Paulo@de; Sao Paulo@tr				-46.63611	-23.5475					
365	Holland	oape	1850	https://github.com//OpenArabicPE/authority-files/data/tei/gazetteer_OpenArabicPE.TEIP5.xml		gn:11495075	Holland@en; Netherlands@en; هولندة@ar				-77.80164	18.10358					
366	Utrecht	oape	1850	https://github.com//OpenArabicPE/authority-files/data/tei/gazetteer_OpenArabicPE.TEIP5.xml		gn:2745912	أوترخت@ar; Utrecht@en; Utrecht@fr; Utrecht@de				5.12222	52.09083					
367	Leiden	oape	1850	https://github.com//OpenArabicPE/authority-files/data/tei/gazetteer_OpenArabicPE.TEIP5.xml		gn:2751773	ليدن@ar; Leiden@en; Leyde@fr; Leiden@de				4.49306	52.15833					
368	جبال مكيس	oape	1850	https://github.com//OpenArabicPE/authority-files/data/tei/gazetteer_OpenArabicPE.TEIP5.xml			جبال مكيس@ar										
531	Mexico City	oape	1850	https://github.com//OpenArabicPE/authority-files/data/tei/gazetteer_OpenArabicPE.TEIP5.xml		gn:3530597	Mexico City@en; مدينة مكسيكو@ar; Mexico@fr; Mexiko-Stadt@de; Ciudad de Mexico@tr				-99.12766	19.42847					
565	Pakistan	oape	1850	https://github.com//OpenArabicPE/authority-files/data/tei/gazetteer_OpenArabicPE.TEIP5.xml		gn:1168579	Pakistan@en; باكستان@ar; Pakistan@fr; Pakistan@de; Pakistan@tr				70	30					
419	Punjab	oape	1850	https://github.com//OpenArabicPE/authority-files/data/tei/gazetteer_OpenArabicPE.TEIP5.xml		gn:1167710	Punjab@en				72.31667	30.85					
477	Hyderābād	oape	1850	https://github.com//OpenArabicPE/authority-files/data/tei/gazetteer_OpenArabicPE.TEIP5.xml		gn:1176734	Ḥaydarābād@ar-Latn-x-ijmes; حيدراباد@ar; Hyderābād@en; Hyderâbâd@fr; Hyderabad@de; Haydarabad@tr				68.37366	25.39242					
527	Lahore	oape	1850	https://github.com//OpenArabicPE/authority-files/data/tei/gazetteer_OpenArabicPE.TEIP5.xml		gn:1172451	Lahore@en; لاهور@ar; Lahore@fr; Lahore@de; Lahor@tr				74.35071	31.558					
429	Pekalongan	oape	1850	https://github.com//OpenArabicPE/authority-files/data/tei/gazetteer_OpenArabicPE.TEIP5.xml		gn:1631766	Pekalongan@en; Pekalongan@fr				109.6753	-6.8886					
613	Palembang	oape	1850	https://github.com//OpenArabicPE/authority-files/data/tei/gazetteer_OpenArabicPE.TEIP5.xml		gn:1633070	Palembang@en; باليمبانج@ar; Palembang@fr; Palembang@de				104.7458	-2.91673					
474	Batavia	oape	1850	https://github.com//OpenArabicPE/authority-files/data/tei/gazetteer_OpenArabicPE.TEIP5.xml		gn:1642911	Batavia@en; Jakarta@en; جاكارتا@ar; Jakarta@fr; Jakarta@de; Cakarta@tr				106.84513	-6.21462					
490	Surabaya	oape	1850	https://github.com//OpenArabicPE/authority-files/data/tei/gazetteer_OpenArabicPE.TEIP5.xml		gn:1625822	Surabaya@en; سورابايا@ar; Surabaya@fr; Surabaya@de				112.75083	-7.24917					
548	Yogyakarta	oape	1850	https://github.com//OpenArabicPE/authority-files/data/tei/gazetteer_OpenArabicPE.TEIP5.xml		gn:1621177	Yogyakarta@en; يوجياكرتا@ar; Yogyakarta@fr; Yogyakarta@de				110.36472	-7.80139					
559	Weltevreden	oape	1850	https://github.com//OpenArabicPE/authority-files/data/tei/gazetteer_OpenArabicPE.TEIP5.xml		gn:1980810	Weltevreden@en				125.12694	1.50528					
611	Jordan	oape	1850	https://github.com//OpenArabicPE/authority-files/data/tei/gazetteer_OpenArabicPE.TEIP5.xml		gn:248816	الأردن@ar; Jordan@en; Jordanie@fr; Jordanien@de; Ürdün@tr				36	31					
241	بور رويال	oape	1850	https://github.com//OpenArabicPE/authority-files/data/tei/gazetteer_OpenArabicPE.TEIP5.xml			بور رويال@fr-Arab-AR										
616	Dammam	oape	1850	https://github.com//OpenArabicPE/authority-files/data/tei/gazetteer_OpenArabicPE.TEIP5.xml		gn:110336	الدمام@ar; Dammam@en; Dammam@fr; Dammam@de; Ed Dammam@tr				50.10326	26.43442					
617	Riyadh	oape	1850	https://github.com//OpenArabicPE/authority-files/data/tei/gazetteer_OpenArabicPE.TEIP5.xml		gn:108410	الرياض@ar; Riyadh@en; Riyad@fr; Riad@de; Riyad@tr				46.72185	24.68773					
618	الفجالة	oape	1850	https://github.com//OpenArabicPE/authority-files/data/tei/gazetteer_OpenArabicPE.TEIP5.xml		gn:7783488	الفجالة@ar				43.3939	16.31673					
619	Al Mansurah	oape	1850	https://github.com//OpenArabicPE/authority-files/data/tei/gazetteer_OpenArabicPE.TEIP5.xml		gn:360761	منصورة@ar; Al Mansurah@en; Mansourah@fr; Al-Mansura@de; Mansura@tr				31.38069	31.03637					
620	بكفيا	oape	1850	https://github.com//OpenArabicPE/authority-files/data/tei/gazetteer_OpenArabicPE.TEIP5.xml		gn:276605	بكفيا@ar; بكفيّا@ar				35.68306	33.92222					
621	دير الزعفران	oape	1850	https://github.com//OpenArabicPE/authority-files/data/tei/gazetteer_OpenArabicPE.TEIP5.xml			دير الزعفران@ar										
622	سوريا	oape	1850	https://github.com//OpenArabicPE/authority-files/data/tei/gazetteer_OpenArabicPE.TEIP5.xml			سوريا@										
624	Heliopolis	oape	1850	https://github.com//OpenArabicPE/authority-files/data/tei/gazetteer_OpenArabicPE.TEIP5.xml		gn:352262	مصر الجديدة@ar; Heliopolis@en; Héliopolis@fr; Heliopolis@de				31.37924	30.10882					
243	ضفاف بردى	oape	1850	https://github.com//OpenArabicPE/authority-files/data/tei/gazetteer_OpenArabicPE.TEIP5.xml			ضفاف بردى@ar										
244	البحر الرومي	oape	1850	https://github.com//OpenArabicPE/authority-files/data/tei/gazetteer_OpenArabicPE.TEIP5.xml			البحر الرومي@ar										
245	الحلوجي	oape	1850	https://github.com//OpenArabicPE/authority-files/data/tei/gazetteer_OpenArabicPE.TEIP5.xml			الحلوجي@ar										
246	المغرب الأقصى	oape	1850	https://github.com//OpenArabicPE/authority-files/data/tei/gazetteer_OpenArabicPE.TEIP5.xml			المغرب الأقصى@ar										
247	برج عمود	oape	1850	https://github.com//OpenArabicPE/authority-files/data/tei/gazetteer_OpenArabicPE.TEIP5.xml			برج عمود@ar										
249	بيرام زاده	oape	1850	https://github.com//OpenArabicPE/authority-files/data/tei/gazetteer_OpenArabicPE.TEIP5.xml			بيرام زاده@ar										
251	حمام الجرب	oape	1850	https://github.com//OpenArabicPE/authority-files/data/tei/gazetteer_OpenArabicPE.TEIP5.xml			حمام الجرب@ar										
252	حمام الريح	oape	1850	https://github.com//OpenArabicPE/authority-files/data/tei/gazetteer_OpenArabicPE.TEIP5.xml			حمام الريح@ar										
253	حمام سليم	oape	1850	https://github.com//OpenArabicPE/authority-files/data/tei/gazetteer_OpenArabicPE.TEIP5.xml			حمام سليم@ar										
254	سوق البلاط	oape	1850	https://github.com//OpenArabicPE/authority-files/data/tei/gazetteer_OpenArabicPE.TEIP5.xml			سوق البلاط@ar										
256	فارسوفيا	oape	1850	https://github.com//OpenArabicPE/authority-files/data/tei/gazetteer_OpenArabicPE.TEIP5.xml			فارسوفيا@ar										
257	كوتنغن	oape	1850	https://github.com//OpenArabicPE/authority-files/data/tei/gazetteer_OpenArabicPE.TEIP5.xml			كوتنغن@ar										
259	Asia	oape	1850	https://github.com//OpenArabicPE/authority-files/data/tei/gazetteer_OpenArabicPE.TEIP5.xml		gn:6255147	Asia@en; آسيا@ar; Asie@fr; Asien@de; Asya@tr				89.29688	29.84064					
260	Asia Minor	oape	1850	https://github.com//OpenArabicPE/authority-files/data/tei/gazetteer_OpenArabicPE.TEIP5.xml		gn:323835	Asia Minor@en; آسيا الصغرى@ar; البلاد تركية@ar; Anatolien@de; Anadolu@tr				35	39					
261	Africa	oape	1850	https://github.com//OpenArabicPE/authority-files/data/tei/gazetteer_OpenArabicPE.TEIP5.xml		gn:6255146	Africa@en; أفريقية@ar; Afrique@fr; Afrika@de; Afrika@tr				21.09375	7.1881					
262	Europe	oape	1850	https://github.com//OpenArabicPE/authority-files/data/tei/gazetteer_OpenArabicPE.TEIP5.xml		gn:9408659	Europe@en; أوربا@ar; Europe de l'Ouest@fr; Westeuropa@de				7.42676	50.21909					
263	خراسان	oape	1850	https://github.com//OpenArabicPE/authority-files/data/tei/gazetteer_OpenArabicPE.TEIP5.xml		gn:6201376	خراسان@ar				57	37.5					
264	Al Hudaydah	oape	1850	https://github.com//OpenArabicPE/authority-files/data/tei/gazetteer_OpenArabicPE.TEIP5.xml		gn:79415	الحديدة@ar; al-Ḥudayda@ar-Latn-x-ijmes; Al Hudaydah@en				42.95452	14.79781					
265	طوس	oape	1850	https://github.com//OpenArabicPE/authority-files/data/tei/gazetteer_OpenArabicPE.TEIP5.xml		gn:385399	طوس@ar				53.28435	36.69323					
266	Uşak	oape	1850	https://github.com//OpenArabicPE/authority-files/data/tei/gazetteer_OpenArabicPE.TEIP5.xml		gn:298299	عشاق@ar; Uşak@en; Uşak@fr; Uşak@de; Uşak@tr				29.4058	38.67351					
267	Petra	oape	1850	https://github.com//OpenArabicPE/authority-files/data/tei/gazetteer_OpenArabicPE.TEIP5.xml		gn:246008	وادي موسى@ar; Petra@en				35.47895	30.32096					
268	نادي دار العلوم	oape	1850	https://github.com//OpenArabicPE/authority-files/data/tei/gazetteer_OpenArabicPE.TEIP5.xml			نادي دار العلوم@ar										
250	جدره	oape	1850	https://github.com//OpenArabicPE/authority-files/data/tei/gazetteer_OpenArabicPE.TEIP5.xml		gn:1442556	جدره@ar				66.9734	33.12775					
269	كرسون	oape	1850	https://github.com//OpenArabicPE/authority-files/data/tei/gazetteer_OpenArabicPE.TEIP5.xml		gn:6746378	كرسون@ar				49.234	33.0052					
242	ضفاف النيل	oape	1850	https://github.com//OpenArabicPE/authority-files/data/tei/gazetteer_OpenArabicPE.TEIP5.xml		gn:12085354	ضفاف النيل@ar				44.2765	33.27524					
270	Jordan River	oape	1850	https://github.com//OpenArabicPE/authority-files/data/tei/gazetteer_OpenArabicPE.TEIP5.xml		gn:294624	نهر الشريعة@ar; Jordan River@en; Jourdain@fr; Jordan (Fluss)@de				35.55792	31.76025					
258	وادي اليرموك	oape	1850	https://github.com//OpenArabicPE/authority-files/data/tei/gazetteer_OpenArabicPE.TEIP5.xml		gn:12210767	وادي اليرموك@ar				36.00969	32.7449					
240	الحضارة	oape	1850	https://github.com//OpenArabicPE/authority-files/data/tei/gazetteer_OpenArabicPE.TEIP5.xml		gn:7354617	الحضارة@ar				43.77892	13.17384					
418	Madras	oape	1850	https://github.com//OpenArabicPE/authority-files/data/tei/gazetteer_OpenArabicPE.TEIP5.xml		gn:11495534	Madras@				-77.44875	18.29112					
420	Santiago del Estero	oape	1850	https://github.com//OpenArabicPE/authority-files/data/tei/gazetteer_OpenArabicPE.TEIP5.xml		gn:3835868	Santiago del Estero@en				-63.5	-28					
422	Saint Lawrence	oape	1850	https://github.com//OpenArabicPE/authority-files/data/tei/gazetteer_OpenArabicPE.TEIP5.xml		gn:8299749	Saint Lawrence@en; سنت ل@ar				14.19778	36.04861					
426	Campos	oape	1850	https://github.com//OpenArabicPE/authority-files/data/tei/gazetteer_OpenArabicPE.TEIP5.xml		gn:2520403	Campos@en; Campos@de; Campos@tr				3.01935	39.43099					
427	Manaus	oape	1850	https://github.com//OpenArabicPE/authority-files/data/tei/gazetteer_OpenArabicPE.TEIP5.xml		gn:3663517	Manaus@en; Manaus@fr; Manaus@de; Manaus@tr				-60.025	-3.10194					
428	Nicteroy	oape	1850	https://github.com//OpenArabicPE/authority-files/data/tei/gazetteer_OpenArabicPE.TEIP5.xml		gn:3456283	Nicteroy@en; Niterói@en; Niterói@fr; Niterói@de				-43.10361	-22.88333					
430	Poá	oape	1850	https://github.com//OpenArabicPE/authority-files/data/tei/gazetteer_OpenArabicPE.TEIP5.xml		gn:3453406	Poá@en				-46.34472	-23.52806					
432	San Pedro de Macoris	oape	1850	https://github.com//OpenArabicPE/authority-files/data/tei/gazetteer_OpenArabicPE.TEIP5.xml		gn:3493032	San Pedro de Macoris@en; San Pedro de Macorís@de				-69.30864	18.4539					
434	Woking	oape	1850	https://github.com//OpenArabicPE/authority-files/data/tei/gazetteer_OpenArabicPE.TEIP5.xml		gn:2633709	Woking@en; Woking@de				-0.55893	51.31903					
449	al-Muʿallaqa	oape	1850	https://github.com//OpenArabicPE/authority-files/data/tei/gazetteer_OpenArabicPE.TEIP5.xml		gn:166829	al-Muʿallaqa@ar-Latn-x-ijmes; المعلقة@ar				35.8925	32.91597					
456	Biskra	oape	1850	https://github.com//OpenArabicPE/authority-files/data/tei/gazetteer_OpenArabicPE.TEIP5.xml		gn:2503826	Biskra@ar-Latn-x-ijmes; بسكرة@ar; Biskra@en; Biskra@fr; Biskra@de				5.72805	34.85038					
465	Porto Alegre	oape	1850	https://github.com//OpenArabicPE/authority-files/data/tei/gazetteer_OpenArabicPE.TEIP5.xml		gn:3452925	Porto Alegre@en; بورتو أليغري@ar; Porto Alegre@fr; Porto Alegre@de; Porto Alegre@tr				-51.23019	-30.03283					
467	Bogor	oape	1850	https://github.com//OpenArabicPE/authority-files/data/tei/gazetteer_OpenArabicPE.TEIP5.xml		gn:1648473	Bogor@und-Latn; Buitenzorg@und-Latn; بوكور@ar; Bogor@en; Bogor@fr; Bogor@de				106.78917	-6.59444					
468	Būlāq	oape	1850	https://github.com//OpenArabicPE/authority-files/data/tei/gazetteer_OpenArabicPE.TEIP5.xml		gn:1146359	Būlāq@ar-Latn-x-ijmes; بولاق@ar				61.55484	32.6223					
471	Belo Horizonte	oape	1850	https://github.com//OpenArabicPE/authority-files/data/tei/gazetteer_OpenArabicPE.TEIP5.xml		gn:3470127	Belo Horizonte@en; بيلو هوريزونتي@ar; Belo Horizonte@fr; Belo Horizonte@de; Belo Horizonte@tr				-43.93778	-19.92083					
472	Baynū (ʿAkkār)	oape	1850	https://github.com//OpenArabicPE/authority-files/data/tei/gazetteer_OpenArabicPE.TEIP5.xml		gn:276785	Baynū (ʿAkkār)@ar-Latn-x-ijmes; بينو ( عكار )@ar				36.17889	34.53778					
486	Tucumán	oape	1850	https://github.com//OpenArabicPE/authority-files/data/tei/gazetteer_OpenArabicPE.TEIP5.xml		gn:3836873	Tucumán@en; توكومان@ar; سان ميغيل دي توكومان@ar; San Miguel de Tucumán@fr; San Miguel de Tucumán@de				-65.2226	-26.82414					
567	Dar es Salaam	oape	1850	https://github.com//OpenArabicPE/authority-files/data/tei/gazetteer_OpenArabicPE.TEIP5.xml		gn:160263	دار السلام@ar; Dār al-Salām@ar-Latn-x-ijmes; Dar es Salaam@en; Dar es Salam@fr; Daressalam@de; Darüsselam@tr				39.26951	-6.82349					
488	Singapore	oape	1850	https://github.com//OpenArabicPE/authority-files/data/tei/gazetteer_OpenArabicPE.TEIP5.xml		gn:1880252	Singapore@en; سنغافورة@ar; Singapour@fr; Singapur@de				103.85007	1.28967					
489	Sohag	oape	1850	https://github.com//OpenArabicPE/authority-files/data/tei/gazetteer_OpenArabicPE.TEIP5.xml		gn:347796	Sūḥāj@ar-Latn-x-ijmes; سوحاج@ar; Sohag@en; Sevhac@tr				31.69478	26.55695					
491	Susa	oape	1850	https://github.com//OpenArabicPE/authority-files/data/tei/gazetteer_OpenArabicPE.TEIP5.xml		gn:2464915	Susa@en; Sūsa@ar-Latn-x-ijmes; سوسة@ar; Sousse@fr; Sousse@de				10.63699	35.82539					
498	Ṣalīmā	oape	1850	https://github.com//OpenArabicPE/authority-files/data/tei/gazetteer_OpenArabicPE.TEIP5.xml		gn:1127822	Ṣalīmā@ar-Latn-x-ijmes; صليمى@ar				62.49299	34.25322					
502	Ṭūkh	oape	1850	https://github.com//OpenArabicPE/authority-files/data/tei/gazetteer_OpenArabicPE.TEIP5.xml		gn:446089	Ṭūkh@ar-Latn-x-ijmes; طوخ@ar				42.89109	37.10934					
503	Ṭūkh Qalyūbiyya	oape	1850	https://github.com//OpenArabicPE/authority-files/data/tei/gazetteer_OpenArabicPE.TEIP5.xml		gn:347236	Ṭūkh Qalyūbiyya@ar-Latn-x-ijmes; طوخ قليوبية@ar				31.20105	30.35487					
506	ʿIzbat al-Zaytūn	oape	1850	https://github.com//OpenArabicPE/authority-files/data/tei/gazetteer_OpenArabicPE.TEIP5.xml		gn:8624334	ʿIzbat al-Zaytūn@ar-Latn-x-ijmes; عزبة الزيتون@ar				30.99735	30.82376					
512	Valetta (Malta)	oape	1850	https://github.com//OpenArabicPE/authority-files/data/tei/gazetteer_OpenArabicPE.TEIP5.xml		gn:2562305	Valetta (Malta)@en; فاليتا@ar; La Valette@fr; Valletta@de; Valletta@tr				14.5148	35.89968					
516	Qalʿat al-Qadmūs	oape	1850	https://github.com//OpenArabicPE/authority-files/data/tei/gazetteer_OpenArabicPE.TEIP5.xml		gn:173389	Qalʿat al-Qadmūs@ar-Latn-x-ijmes; قلعة القدموس@ar				36.15984	35.09855					
517	Qanā	oape	1850	https://github.com//OpenArabicPE/authority-files/data/tei/gazetteer_OpenArabicPE.TEIP5.xml		gn:7046973	Qanā@ar-Latn-x-ijmes; قنى@ar				41.87641	36.43842					
519	Campinas	oape	1850	https://github.com//OpenArabicPE/authority-files/data/tei/gazetteer_OpenArabicPE.TEIP5.xml		gn:3467865	Campinas@en; كامبيناس@ar; Campinas@fr; Campinas@de				-47.06083	-22.90556					
530	Zanzibar	oape	1850	https://github.com//OpenArabicPE/authority-files/data/tei/gazetteer_OpenArabicPE.TEIP5.xml		gn:148730	Zanzibar@en; مدينة زنجبار@ar; Sansibar-Stadt@de				39.19793	-6.16394					
534	Mukallā	oape	1850	https://github.com//OpenArabicPE/authority-files/data/tei/gazetteer_OpenArabicPE.TEIP5.xml		gn:1450486	Mukallā@ar-Latn-x-ijmes; مكلى@ar				67.15723	33.28261					
535	Malawī	oape	1850	https://github.com//OpenArabicPE/authority-files/data/tei/gazetteer_OpenArabicPE.TEIP5.xml		gn:352951	Malawī@ar-Latn-x-ijmes; ملوي@ar				30.84129	27.73264					
536	Malīlā	oape	1850	https://github.com//OpenArabicPE/authority-files/data/tei/gazetteer_OpenArabicPE.TEIP5.xml		gn:908111	Malīlā@ar-Latn-x-ijmes; مليلى@ar				28.33333	-14.18333					
540	Montreal	oape	1850	https://github.com//OpenArabicPE/authority-files/data/tei/gazetteer_OpenArabicPE.TEIP5.xml		gn:6077243	Montreal@en; مونتريال@ar; Montréal@fr; Montreal@de; Montreal@tr				-73.58781	45.50884					
543	N'Djamena	oape	1850	https://github.com//OpenArabicPE/authority-files/data/tei/gazetteer_OpenArabicPE.TEIP5.xml		gn:2427123	Naples@ar-Latn-x-ijmes; نابولي@ar; N'Djamena@en; Ndjamena@fr; Indschamina@de				15.0444	12.10672					
545	Havana	oape	1850	https://github.com//OpenArabicPE/authority-files/data/tei/gazetteer_OpenArabicPE.TEIP5.xml		gn:3553478	Havana@en; هافانا@ar; La Havane@fr; Havanna@de; Havana@tr				-82.38304	23.13302					
547	Oran	oape	1850	https://github.com//OpenArabicPE/authority-files/data/tei/gazetteer_OpenArabicPE.TEIP5.xml		gn:2485926	Wihrān@ar-Latn-x-ijmes; Oran@en; وهران@ar; Oran@fr; Oran@de				-0.63588	35.69906					
549	Skikda	oape	1850	https://github.com//OpenArabicPE/authority-files/data/tei/gazetteer_OpenArabicPE.TEIP5.xml		gn:2479536	Sakīkada@ar-Latn-x-ijmes; سكيكدة@ar; Skikda@en; Skikda@fr; Sukaikida@de				6.90921	36.87617					
550	Oliveira	oape	1850	https://github.com//OpenArabicPE/authority-files/data/tei/gazetteer_OpenArabicPE.TEIP5.xml		gn:3393531	Oliveira@en				-42.75	-5.78333					
552	Jabla	oape	1850	https://github.com//OpenArabicPE/authority-files/data/tei/gazetteer_OpenArabicPE.TEIP5.xml		gn:105540	Jabla@ar-Latn-x-ijmes; جبلة@ar				42.59466	28.59111					
556	Solo	oape	1850	https://github.com//OpenArabicPE/authority-files/data/tei/gazetteer_OpenArabicPE.TEIP5.xml		gn:7772535	Solo@und-Latn				18.1206	-11.32062					
562	St. Louis	oape	1850	https://github.com//OpenArabicPE/authority-files/data/tei/gazetteer_OpenArabicPE.TEIP5.xml		gn:6955119	St. Louis@en				-90.24925	38.63162					
563	Qaytūlī	oape	1850	https://github.com//OpenArabicPE/authority-files/data/tei/gazetteer_OpenArabicPE.TEIP5.xml		gn:11357888	Qaytūlī@ar-Latn-x-ijmes; قيتولي@ar				47.31862	35.05862					
406	al-Ḥawāmidiyya	oape	1850	https://github.com//OpenArabicPE/authority-files/data/tei/gazetteer_OpenArabicPE.TEIP5.xml			al-Ḥawāmidiyya@ar-Latn-x-ijmes; الحوامدية@ar										
407	Jisr Nahr Bayrūt	oape	1850	https://github.com//OpenArabicPE/authority-files/data/tei/gazetteer_OpenArabicPE.TEIP5.xml			Jisr Nahr Bayrūt@ar-Latn-x-ijmes; جسر نهر بيروت@ar										
408	Ghawānābārā	oape	1850	https://github.com//OpenArabicPE/authority-files/data/tei/gazetteer_OpenArabicPE.TEIP5.xml			Ghawānābārā@ar-Latn-x-ijmes; غوانابارى@ar										
409	Flaymbigh	oape	1850	https://github.com//OpenArabicPE/authority-files/data/tei/gazetteer_OpenArabicPE.TEIP5.xml			Flaymbigh@en; فلمبان@ar										
410	Qaṣabat Basharrāy	oape	1850	https://github.com//OpenArabicPE/authority-files/data/tei/gazetteer_OpenArabicPE.TEIP5.xml			Qaṣabat Basharrāy@ar-Latn-x-ijmes; قصبة بشراي@ar										
411	Qaṣbat Jazzīn	oape	1850	https://github.com//OpenArabicPE/authority-files/data/tei/gazetteer_OpenArabicPE.TEIP5.xml			Qaṣbat Jazzīn@ar-Latn-x-ijmes; قصبة جزين@ar										
414	Madīna ʿĀliyya	oape	1850	https://github.com//OpenArabicPE/authority-files/data/tei/gazetteer_OpenArabicPE.TEIP5.xml			Madīna ʿĀliyya@ar-Latn-x-ijmes; مدينة عالية@ar										
